{
"type": "FeatureCollection",
"name": "merged_damaged-roads",
"crs": { "type": "name", "properties": { "name": "urn:ogc:def:crs:OGC:1.3:CRS84" } },
"features": [
{ "type": "Feature", "properties": { "UseType": "service", "Asset": "Road", "Value": 390, "Details": null, "Structure": null, "Wall_Material": null, "Condition": null, "Admin1_Region": "Nassau", "Admin2_Region": "Nassau", "WindGust_kmph": 60, "Fluvial_Inundation_m": 0.0, "Coastal_Inundation_m": 0.68, "Road_km": 0.0099999999998565889, "Fluvial_Flood_Loss": 0, "Coastal_Flood_Loss": 72, "Loss": 72 }, "geometry": { "type": "LineString", "coordinates": [ [ -165.419648969483461, -11.55640535185039 ], [ -165.419665800510472, -11.556318899962184 ] ] } },
{ "type": "Feature", "properties": { "UseType": "service", "Asset": "Road", "Value": 390, "Details": null, "Structure": null, "Wall_Material": null, "Condition": null, "Admin1_Region": "Nassau", "Admin2_Region": "Nassau", "WindGust_kmph": 60, "Fluvial_Inundation_m": 0.0, "Coastal_Inundation_m": 1.02, "Road_km": 0.010000000000325861, "Fluvial_Flood_Loss": 0, "Coastal_Flood_Loss": 90, "Loss": 90 }, "geometry": { "type": "LineString", "coordinates": [ [ -165.419665800510472, -11.556318899962184 ], [ -165.419682631537455, -11.556232448047313 ] ] } },
{ "type": "Feature", "properties": { "UseType": "service", "Asset": "Road", "Value": 390, "Details": null, "Structure": null, "Wall_Material": null, "Condition": null, "Admin1_Region": "Nassau", "Admin2_Region": "Nassau", "WindGust_kmph": 59, "Fluvial_Inundation_m": 0.0, "Coastal_Inundation_m": 1.02, "Road_km": 0.0099999999997919531, "Fluvial_Flood_Loss": 0, "Coastal_Flood_Loss": 90, "Loss": 90 }, "geometry": { "type": "LineString", "coordinates": [ [ -165.419682631537455, -11.556232448047313 ], [ -165.419692199999986, -11.5561833 ], [ -165.41969837846122, -11.556145809104962 ] ] } },
{ "type": "Feature", "properties": { "UseType": "residential", "Asset": "Road", "Value": 1075, "Details": null, "Structure": null, "Wall_Material": null, "Condition": null, "Admin1_Region": "Pukapuka", "Admin2_Region": "Pukapuka", "WindGust_kmph": 37, "Fluvial_Inundation_m": 0.0, "Coastal_Inundation_m": 0.4, "Road_km": 0.0099999999987245049, "Fluvial_Flood_Loss": 0, "Coastal_Flood_Loss": 139, "Loss": 139 }, "geometry": { "type": "LineString", "coordinates": [ [ -165.845734139574006, -10.852792865890386 ], [ -165.845815842871843, -10.852829538018662 ] ] } },
{ "type": "Feature", "properties": { "UseType": "track", "Asset": "Road", "Value": 393, "Details": null, "Structure": null, "Wall_Material": null, "Condition": null, "Admin1_Region": "Rakahanga", "Admin2_Region": "Rakahanga", "WindGust_kmph": 19, "Fluvial_Inundation_m": 0.0, "Coastal_Inundation_m": 0.32, "Road_km": 0.0099999999992574345, "Fluvial_Flood_Loss": 0, "Coastal_Flood_Loss": 40, "Loss": 40 }, "geometry": { "type": "LineString", "coordinates": [ [ -161.103501478887637, -10.031039786270989 ], [ -161.1035244, -10.0310039 ], [ -161.103542527820593, -10.030961435159416 ] ] } },
{ "type": "Feature", "properties": { "UseType": "track", "Asset": "Road", "Value": 393, "Details": null, "Structure": null, "Wall_Material": null, "Condition": null, "Admin1_Region": "Rakahanga", "Admin2_Region": "Rakahanga", "WindGust_kmph": 19, "Fluvial_Inundation_m": 0.0, "Coastal_Inundation_m": 0.37, "Road_km": 0.010000000000494207, "Fluvial_Flood_Loss": 0, "Coastal_Flood_Loss": 46, "Loss": 46 }, "geometry": { "type": "LineString", "coordinates": [ [ -161.103542527820593, -10.030961435159416 ], [ -161.103577339167003, -10.030879888756786 ] ] } },
{ "type": "Feature", "properties": { "UseType": "track", "Asset": "Road", "Value": 393, "Details": null, "Structure": null, "Wall_Material": null, "Condition": null, "Admin1_Region": "Rakahanga", "Admin2_Region": "Rakahanga", "WindGust_kmph": 19, "Fluvial_Inundation_m": 0.0, "Coastal_Inundation_m": 0.41, "Road_km": 0.0099999999994798642, "Fluvial_Flood_Loss": 0, "Coastal_Flood_Loss": 52, "Loss": 52 }, "geometry": { "type": "LineString", "coordinates": [ [ -161.103577339167003, -10.030879888756786 ], [ -161.103612150513356, -10.030798342333622 ] ] } },
{ "type": "Feature", "properties": { "UseType": "track", "Asset": "Road", "Value": 74, "Details": null, "Structure": null, "Wall_Material": null, "Condition": null, "Admin1_Region": "Rakahanga", "Admin2_Region": "Rakahanga", "WindGust_kmph": 19, "Fluvial_Inundation_m": 0.0, "Coastal_Inundation_m": 0.41, "Road_km": 0.0018814229650133886, "Fluvial_Flood_Loss": 0, "Coastal_Flood_Loss": 9, "Loss": 9 }, "geometry": { "type": "LineString", "coordinates": [ [ -161.103612150513356, -10.030798342333622 ], [ -161.103618700000027, -10.030783 ] ] } },
{ "type": "Feature", "properties": { "UseType": "residential", "Asset": "Road", "Value": 1021, "Details": null, "Structure": null, "Wall_Material": null, "Condition": null, "Admin1_Region": "Rarotonga", "Admin2_Region": "Rarotonga", "WindGust_kmph": 149, "Fluvial_Inundation_m": 0.0, "Coastal_Inundation_m": 0.09, "Road_km": 0.010000000000186955, "Fluvial_Flood_Loss": 0, "Coastal_Flood_Loss": 30, "Loss": 30 }, "geometry": { "type": "LineString", "coordinates": [ [ -159.796098677029363, -21.19941395291109 ], [ -159.796184165544048, -21.199439679359916 ] ] } },
{ "type": "Feature", "properties": { "UseType": "residential", "Asset": "Road", "Value": 1021, "Details": null, "Structure": null, "Wall_Material": null, "Condition": null, "Admin1_Region": "Rarotonga", "Admin2_Region": "Rarotonga", "WindGust_kmph": 149, "Fluvial_Inundation_m": 0.0, "Coastal_Inundation_m": 0.5, "Road_km": 0.010000000000186955, "Fluvial_Flood_Loss": 0, "Coastal_Flood_Loss": 162, "Loss": 162 }, "geometry": { "type": "LineString", "coordinates": [ [ -159.7959277, -21.1993625 ], [ -159.796013188514678, -21.199388226457785 ] ] } },
{ "type": "Feature", "properties": { "UseType": "residential", "Asset": "Road", "Value": 1021, "Details": null, "Structure": null, "Wall_Material": null, "Condition": null, "Admin1_Region": "Rarotonga", "Admin2_Region": "Rarotonga", "WindGust_kmph": 149, "Fluvial_Inundation_m": 0.0, "Coastal_Inundation_m": 0.28, "Road_km": 0.010000000000186955, "Fluvial_Flood_Loss": 0, "Coastal_Flood_Loss": 92, "Loss": 92 }, "geometry": { "type": "LineString", "coordinates": [ [ -159.796013188514678, -21.199388226457785 ], [ -159.796098677029363, -21.19941395291109 ] ] } },
{ "type": "Feature", "properties": { "UseType": "footway", "Asset": "Road", "Value": 377, "Details": null, "Structure": null, "Wall_Material": null, "Condition": null, "Admin1_Region": "Aitutaki", "Admin2_Region": "Aitutaki", "WindGust_kmph": 142, "Fluvial_Inundation_m": 0.0, "Coastal_Inundation_m": 0.11, "Road_km": 0.010000000000149858, "Fluvial_Flood_Loss": 0, "Coastal_Flood_Loss": 13, "Loss": 13 }, "geometry": { "type": "LineString", "coordinates": [ [ -159.730711899999989, -18.9114165 ], [ -159.730719099999959, -18.9114092 ], [ -159.730729599999961, -18.9113938 ], [ -159.73073972127176, -18.911337942038518 ] ] } },
{ "type": "Feature", "properties": { "UseType": "residential", "Asset": "Road", "Value": 1032, "Details": null, "Structure": null, "Wall_Material": null, "Condition": null, "Admin1_Region": "Aitutaki", "Admin2_Region": "Aitutaki", "WindGust_kmph": 97, "Fluvial_Inundation_m": 0.0, "Coastal_Inundation_m": 0.58, "Road_km": 0.0099999999988368664, "Fluvial_Flood_Loss": 0, "Coastal_Flood_Loss": 175, "Loss": 175 }, "geometry": { "type": "LineString", "coordinates": [ [ -159.757433991860466, -18.848948680723684 ], [ -159.757405, -18.8489897 ], [ -159.757378081406301, -18.849014659732958 ] ] } },
{ "type": "Feature", "properties": { "UseType": "residential", "Asset": "Road", "Value": 937, "Details": null, "Structure": null, "Wall_Material": null, "Condition": null, "Admin1_Region": "Aitutaki", "Admin2_Region": "Aitutaki", "WindGust_kmph": 100, "Fluvial_Inundation_m": 0.0, "Coastal_Inundation_m": 1.27, "Road_km": 0.0090828912169705414, "Fluvial_Flood_Loss": 0, "Coastal_Flood_Loss": 251, "Loss": 251 }, "geometry": { "type": "LineString", "coordinates": [ [ -159.757378081406301, -18.849014659732958 ], [ -159.7573198, -18.8490687 ] ] } },
{ "type": "Feature", "properties": { "UseType": "track_grade1", "Asset": "Road", "Value": 371, "Details": "Turoa Road", "Structure": null, "Wall_Material": null, "Condition": null, "Admin1_Region": "Rarotonga", "Admin2_Region": "Rarotonga", "WindGust_kmph": 216, "Fluvial_Inundation_m": 0.0, "Coastal_Inundation_m": 0.96, "Road_km": 0.009999999999874316, "Fluvial_Flood_Loss": 0, "Coastal_Flood_Loss": 83, "Loss": 83 }, "geometry": { "type": "LineString", "coordinates": [ [ -159.767813600000011, -21.26791690000001 ], [ -159.767788967749794, -21.267836395103878 ] ] } },
{ "type": "Feature", "properties": { "UseType": "unclassified", "Asset": "Road", "Value": 378, "Details": null, "Structure": null, "Wall_Material": null, "Condition": null, "Admin1_Region": "Aitutaki", "Admin2_Region": "Aitutaki", "WindGust_kmph": 137, "Fluvial_Inundation_m": 0.0, "Coastal_Inundation_m": 0.58, "Road_km": 0.0099999999991556947, "Fluvial_Flood_Loss": 0, "Coastal_Flood_Loss": 64, "Loss": 64 }, "geometry": { "type": "LineString", "coordinates": [ [ -159.7737182, -18.8530566 ], [ -159.773803271449708, -18.853029294025031 ] ] } },
{ "type": "Feature", "properties": { "UseType": "unclassified", "Asset": "Road", "Value": 378, "Details": null, "Structure": null, "Wall_Material": null, "Condition": null, "Admin1_Region": "Aitutaki", "Admin2_Region": "Aitutaki", "WindGust_kmph": 137, "Fluvial_Inundation_m": 0.0, "Coastal_Inundation_m": 0.56, "Road_km": 0.0099999999990061234, "Fluvial_Flood_Loss": 0, "Coastal_Flood_Loss": 63, "Loss": 63 }, "geometry": { "type": "LineString", "coordinates": [ [ -159.773803271449708, -18.853029294025031 ], [ -159.773888342899454, -18.853001988045616 ] ] } },
{ "type": "Feature", "properties": { "UseType": "unclassified", "Asset": "Road", "Value": 378, "Details": null, "Structure": null, "Wall_Material": null, "Condition": null, "Admin1_Region": "Aitutaki", "Admin2_Region": "Aitutaki", "WindGust_kmph": 137, "Fluvial_Inundation_m": 0.0, "Coastal_Inundation_m": 0.57, "Road_km": 0.0099999999990061234, "Fluvial_Flood_Loss": 0, "Coastal_Flood_Loss": 64, "Loss": 64 }, "geometry": { "type": "LineString", "coordinates": [ [ -159.773888342899454, -18.853001988045616 ], [ -159.773973414349172, -18.85297468206176 ] ] } },
{ "type": "Feature", "properties": { "UseType": "unclassified", "Asset": "Road", "Value": 378, "Details": null, "Structure": null, "Wall_Material": null, "Condition": null, "Admin1_Region": "Aitutaki", "Admin2_Region": "Aitutaki", "WindGust_kmph": 137, "Fluvial_Inundation_m": 0.0, "Coastal_Inundation_m": 0.58, "Road_km": 0.0099999999990061234, "Fluvial_Flood_Loss": 0, "Coastal_Flood_Loss": 64, "Loss": 64 }, "geometry": { "type": "LineString", "coordinates": [ [ -159.773973414349172, -18.85297468206176 ], [ -159.774058485798918, -18.852947376073462 ] ] } },
{ "type": "Feature", "properties": { "UseType": "unclassified", "Asset": "Road", "Value": 378, "Details": null, "Structure": null, "Wall_Material": null, "Condition": null, "Admin1_Region": "Aitutaki", "Admin2_Region": "Aitutaki", "WindGust_kmph": 132, "Fluvial_Inundation_m": 0.0, "Coastal_Inundation_m": 0.58, "Road_km": 0.0099999999990061234, "Fluvial_Flood_Loss": 0, "Coastal_Flood_Loss": 64, "Loss": 64 }, "geometry": { "type": "LineString", "coordinates": [ [ -159.774058485798918, -18.852947376073462 ], [ -159.774143557248635, -18.852920070080728 ] ] } },
{ "type": "Feature", "properties": { "UseType": "unclassified", "Asset": "Road", "Value": 378, "Details": null, "Structure": null, "Wall_Material": null, "Condition": null, "Admin1_Region": "Aitutaki", "Admin2_Region": "Aitutaki", "WindGust_kmph": 129, "Fluvial_Inundation_m": 0.0, "Coastal_Inundation_m": 0.58, "Road_km": 0.010000000000979437, "Fluvial_Flood_Loss": 0, "Coastal_Flood_Loss": 64, "Loss": 64 }, "geometry": { "type": "LineString", "coordinates": [ [ -159.774143557248635, -18.852920070080728 ], [ -159.7741849, -18.8529068 ], [ -159.774228881063635, -18.852893488975944 ] ] } },
{ "type": "Feature", "properties": { "UseType": "unclassified", "Asset": "Road", "Value": 378, "Details": null, "Structure": null, "Wall_Material": null, "Condition": null, "Admin1_Region": "Aitutaki", "Admin2_Region": "Aitutaki", "WindGust_kmph": 129, "Fluvial_Inundation_m": 0.0, "Coastal_Inundation_m": 0.57, "Road_km": 0.0099999999993873878, "Fluvial_Flood_Loss": 0, "Coastal_Flood_Loss": 64, "Loss": 64 }, "geometry": { "type": "LineString", "coordinates": [ [ -159.774228881063635, -18.852893488975944 ], [ -159.774314443474196, -18.852867593207517 ] ] } },
{ "type": "Feature", "properties": { "UseType": "unclassified", "Asset": "Road", "Value": 378, "Details": null, "Structure": null, "Wall_Material": null, "Condition": null, "Admin1_Region": "Aitutaki", "Admin2_Region": "Aitutaki", "WindGust_kmph": 123, "Fluvial_Inundation_m": 0.0, "Coastal_Inundation_m": 0.56, "Road_km": 0.0099999999993873878, "Fluvial_Flood_Loss": 0, "Coastal_Flood_Loss": 63, "Loss": 63 }, "geometry": { "type": "LineString", "coordinates": [ [ -159.774314443474196, -18.852867593207517 ], [ -159.774400005884758, -18.852841697435093 ] ] } },
{ "type": "Feature", "properties": { "UseType": "unclassified", "Asset": "Road", "Value": 378, "Details": null, "Structure": null, "Wall_Material": null, "Condition": null, "Admin1_Region": "Aitutaki", "Admin2_Region": "Aitutaki", "WindGust_kmph": 123, "Fluvial_Inundation_m": 0.0, "Coastal_Inundation_m": 0.56, "Road_km": 0.0099999999993873878, "Fluvial_Flood_Loss": 0, "Coastal_Flood_Loss": 63, "Loss": 63 }, "geometry": { "type": "LineString", "coordinates": [ [ -159.774400005884758, -18.852841697435093 ], [ -159.774485568295347, -18.852815801658675 ] ] } },
{ "type": "Feature", "properties": { "UseType": "unclassified", "Asset": "Road", "Value": 378, "Details": null, "Structure": null, "Wall_Material": null, "Condition": null, "Admin1_Region": "Aitutaki", "Admin2_Region": "Aitutaki", "WindGust_kmph": 123, "Fluvial_Inundation_m": 0.0, "Coastal_Inundation_m": 0.56, "Road_km": 0.0099999999993873878, "Fluvial_Flood_Loss": 0, "Coastal_Flood_Loss": 63, "Loss": 63 }, "geometry": { "type": "LineString", "coordinates": [ [ -159.774485568295347, -18.852815801658675 ], [ -159.774571130705908, -18.852789905878279 ] ] } },
{ "type": "Feature", "properties": { "UseType": "unclassified", "Asset": "Road", "Value": 378, "Details": null, "Structure": null, "Wall_Material": null, "Condition": null, "Admin1_Region": "Aitutaki", "Admin2_Region": "Aitutaki", "WindGust_kmph": 109, "Fluvial_Inundation_m": 0.0, "Coastal_Inundation_m": 0.57, "Road_km": 0.0099999999992455429, "Fluvial_Flood_Loss": 0, "Coastal_Flood_Loss": 64, "Loss": 64 }, "geometry": { "type": "LineString", "coordinates": [ [ -159.774571130705908, -18.852789905878279 ], [ -159.774656693116469, -18.852764010093871 ] ] } },
{ "type": "Feature", "properties": { "UseType": "path", "Asset": "Road", "Value": 379, "Details": null, "Structure": null, "Wall_Material": null, "Condition": null, "Admin1_Region": "Aitutaki", "Admin2_Region": "Aitutaki", "WindGust_kmph": 152, "Fluvial_Inundation_m": 0.0, "Coastal_Inundation_m": 0.36, "Road_km": 0.0099999999982475565, "Fluvial_Flood_Loss": 0, "Coastal_Flood_Loss": 43, "Loss": 43 }, "geometry": { "type": "LineString", "coordinates": [ [ -159.777493, -18.8275025 ], [ -159.777406102801137, -18.827480946087196 ] ] } },
{ "type": "Feature", "properties": { "UseType": "path", "Asset": "Road", "Value": 379, "Details": null, "Structure": null, "Wall_Material": null, "Condition": null, "Admin1_Region": "Aitutaki", "Admin2_Region": "Aitutaki", "WindGust_kmph": 152, "Fluvial_Inundation_m": 0.0, "Coastal_Inundation_m": 0.25, "Road_km": 0.010000000000835559, "Fluvial_Flood_Loss": 0, "Coastal_Flood_Loss": 29, "Loss": 29 }, "geometry": { "type": "LineString", "coordinates": [ [ -159.777406102801137, -18.827480946087196 ], [ -159.777391, -18.8274772 ], [ -159.777317010617082, -18.827482718344591 ] ] } },
{ "type": "Feature", "properties": { "UseType": "unclassified", "Asset": "Road", "Value": 378, "Details": null, "Structure": null, "Wall_Material": null, "Condition": null, "Admin1_Region": "Aitutaki", "Admin2_Region": "Aitutaki", "WindGust_kmph": 106, "Fluvial_Inundation_m": 0.0, "Coastal_Inundation_m": 0.54, "Road_km": 0.010000000001449509, "Fluvial_Flood_Loss": 0, "Coastal_Flood_Loss": 62, "Loss": 62 }, "geometry": { "type": "LineString", "coordinates": [ [ -159.774912790832985, -18.85268461821272 ], [ -159.774997974221833, -18.852657626521559 ] ] } },
{ "type": "Feature", "properties": { "UseType": "unclassified", "Asset": "Road", "Value": 378, "Details": null, "Structure": null, "Wall_Material": null, "Condition": null, "Admin1_Region": "Aitutaki", "Admin2_Region": "Aitutaki", "WindGust_kmph": 106, "Fluvial_Inundation_m": 0.0, "Coastal_Inundation_m": 0.33, "Road_km": 0.010000000001449509, "Fluvial_Flood_Loss": 0, "Coastal_Flood_Loss": 39, "Loss": 39 }, "geometry": { "type": "LineString", "coordinates": [ [ -159.774997974221833, -18.852657626521559 ], [ -159.77508315761068, -18.85263063482606 ] ] } },
{ "type": "Feature", "properties": { "UseType": "service", "Asset": "Road", "Value": 378, "Details": null, "Structure": null, "Wall_Material": null, "Condition": null, "Admin1_Region": "Aitutaki", "Admin2_Region": "Aitutaki", "WindGust_kmph": 159, "Fluvial_Inundation_m": 0.0, "Coastal_Inundation_m": 1.76, "Road_km": 0.010000000000545892, "Fluvial_Flood_Loss": 0, "Coastal_Flood_Loss": 119, "Loss": 119 }, "geometry": { "type": "LineString", "coordinates": [ [ -159.800753600000036, -18.8639699 ], [ -159.800672366600793, -18.864006191603291 ] ] } },
{ "type": "Feature", "properties": { "UseType": "service", "Asset": "Road", "Value": 378, "Details": null, "Structure": null, "Wall_Material": null, "Condition": null, "Admin1_Region": "Aitutaki", "Admin2_Region": "Aitutaki", "WindGust_kmph": 158, "Fluvial_Inundation_m": 0.0, "Coastal_Inundation_m": 1.83, "Road_km": 0.010000000000545892, "Fluvial_Flood_Loss": 0, "Coastal_Flood_Loss": 120, "Loss": 120 }, "geometry": { "type": "LineString", "coordinates": [ [ -159.800672366600793, -18.864006191603291 ], [ -159.80059113320155, -18.864042483198723 ] ] } },
{ "type": "Feature", "properties": { "UseType": "service", "Asset": "Road", "Value": 378, "Details": null, "Structure": null, "Wall_Material": null, "Condition": null, "Admin1_Region": "Aitutaki", "Admin2_Region": "Aitutaki", "WindGust_kmph": 159, "Fluvial_Inundation_m": 0.0, "Coastal_Inundation_m": 1.93, "Road_km": 0.010000000000744694, "Fluvial_Flood_Loss": 0, "Coastal_Flood_Loss": 123, "Loss": 123 }, "geometry": { "type": "LineString", "coordinates": [ [ -159.80059113320155, -18.864042483198723 ], [ -159.800509899802307, -18.864078774786289 ] ] } },
{ "type": "Feature", "properties": { "UseType": "service", "Asset": "Road", "Value": 378, "Details": null, "Structure": null, "Wall_Material": null, "Condition": null, "Admin1_Region": "Aitutaki", "Admin2_Region": "Aitutaki", "WindGust_kmph": 159, "Fluvial_Inundation_m": 0.0, "Coastal_Inundation_m": 1.55, "Road_km": 0.010000000000744694, "Fluvial_Flood_Loss": 0, "Coastal_Flood_Loss": 114, "Loss": 114 }, "geometry": { "type": "LineString", "coordinates": [ [ -159.800509899802307, -18.864078774786289 ], [ -159.800428666403093, -18.864115066366022 ] ] } },
{ "type": "Feature", "properties": { "UseType": "service", "Asset": "Road", "Value": 378, "Details": null, "Structure": null, "Wall_Material": null, "Condition": null, "Admin1_Region": "Aitutaki", "Admin2_Region": "Aitutaki", "WindGust_kmph": 158, "Fluvial_Inundation_m": 0.0, "Coastal_Inundation_m": 0.85, "Road_km": 0.010000000000744694, "Fluvial_Flood_Loss": 0, "Coastal_Flood_Loss": 79, "Loss": 79 }, "geometry": { "type": "LineString", "coordinates": [ [ -159.800428666403093, -18.864115066366022 ], [ -159.80034743300385, -18.864151357937892 ] ] } },
{ "type": "Feature", "properties": { "UseType": "service", "Asset": "Road", "Value": 378, "Details": null, "Structure": null, "Wall_Material": null, "Condition": null, "Admin1_Region": "Aitutaki", "Admin2_Region": "Aitutaki", "WindGust_kmph": 158, "Fluvial_Inundation_m": 0.0, "Coastal_Inundation_m": 0.46, "Road_km": 0.010000000000943497, "Fluvial_Flood_Loss": 0, "Coastal_Flood_Loss": 55, "Loss": 55 }, "geometry": { "type": "LineString", "coordinates": [ [ -159.80034743300385, -18.864151357937892 ], [ -159.800266199604607, -18.864187649501911 ] ] } },
{ "type": "Feature", "properties": { "UseType": "service", "Asset": "Road", "Value": 378, "Details": null, "Structure": null, "Wall_Material": null, "Condition": null, "Admin1_Region": "Aitutaki", "Admin2_Region": "Aitutaki", "WindGust_kmph": 158, "Fluvial_Inundation_m": 0.0, "Coastal_Inundation_m": 0.09, "Road_km": 0.0099999999988149117, "Fluvial_Flood_Loss": 0, "Coastal_Flood_Loss": 10, "Loss": 10 }, "geometry": { "type": "LineString", "coordinates": [ [ -159.800266199604607, -18.864187649501911 ], [ -159.8002587, -18.864191 ], [ -159.80018494152813, -18.864223891550523 ] ] } },
{ "type": "Feature", "properties": { "UseType": "service", "Asset": "Road", "Value": 378, "Details": null, "Structure": null, "Wall_Material": null, "Condition": null, "Admin1_Region": "Aitutaki", "Admin2_Region": "Aitutaki", "WindGust_kmph": 159, "Fluvial_Inundation_m": 0.0, "Coastal_Inundation_m": 1.91, "Road_km": 0.010000000001612705, "Fluvial_Flood_Loss": 0, "Coastal_Flood_Loss": 122, "Loss": 122 }, "geometry": { "type": "LineString", "coordinates": [ [ -159.8009247, -18.8639242 ], [ -159.800840635955467, -18.863954168242024 ] ] } },
{ "type": "Feature", "properties": { "UseType": "service", "Asset": "Road", "Value": 378, "Details": null, "Structure": null, "Wall_Material": null, "Condition": null, "Admin1_Region": "Aitutaki", "Admin2_Region": "Aitutaki", "WindGust_kmph": 159, "Fluvial_Inundation_m": 0.0, "Coastal_Inundation_m": 1.78, "Road_km": 0.0099784942808873386, "Fluvial_Flood_Loss": 0, "Coastal_Flood_Loss": 119, "Loss": 119 }, "geometry": { "type": "LineString", "coordinates": [ [ -159.800840635955467, -18.863954168242024 ], [ -159.800803800000011, -18.8639673 ], [ -159.800753600000036, -18.8639699 ] ] } },
{ "type": "Feature", "properties": { "UseType": "service", "Asset": "Road", "Value": 275, "Details": null, "Structure": null, "Wall_Material": null, "Condition": null, "Admin1_Region": "Rarotonga", "Admin2_Region": "Rarotonga", "WindGust_kmph": 133, "Fluvial_Inundation_m": 0.0, "Coastal_Inundation_m": 0.23, "Road_km": 0.0073941316370924465, "Fluvial_Flood_Loss": 0, "Coastal_Flood_Loss": 20, "Loss": 20 }, "geometry": { "type": "LineString", "coordinates": [ [ -159.829983565449368, -21.216257732305223 ], [ -159.8300429, -21.2162299 ] ] } },
{ "type": "Feature", "properties": { "UseType": "primary", "Asset": "Road", "Value": 11235, "Details": "Ara Tapu", "Structure": null, "Wall_Material": null, "Condition": null, "Admin1_Region": "Rarotonga", "Admin2_Region": "Rarotonga", "WindGust_kmph": 149, "Fluvial_Inundation_m": 0.0, "Coastal_Inundation_m": 0.5, "Road_km": 0.0099999999996314044, "Fluvial_Flood_Loss": 0, "Coastal_Flood_Loss": 333, "Loss": 333 }, "geometry": { "type": "LineString", "coordinates": [ [ -159.7959277, -21.1993625 ], [ -159.796016991778714, -21.199353332711389 ] ] } },
{ "type": "Feature", "properties": { "UseType": "primary", "Asset": "Road", "Value": 11235, "Details": "Ara Tapu", "Structure": null, "Wall_Material": null, "Condition": null, "Admin1_Region": "Rarotonga", "Admin2_Region": "Rarotonga", "WindGust_kmph": 149, "Fluvial_Inundation_m": 0.0, "Coastal_Inundation_m": 0.44, "Road_km": 0.0099999999996314044, "Fluvial_Flood_Loss": 0, "Coastal_Flood_Loss": 283, "Loss": 283 }, "geometry": { "type": "LineString", "coordinates": [ [ -159.796016991778714, -21.199353332711389 ], [ -159.796106283557435, -21.199344165422207 ] ] } },
{ "type": "Feature", "properties": { "UseType": "primary", "Asset": "Road", "Value": 11235, "Details": "Ara Tapu", "Structure": null, "Wall_Material": null, "Condition": null, "Admin1_Region": "Rarotonga", "Admin2_Region": "Rarotonga", "WindGust_kmph": 149, "Fluvial_Inundation_m": 0.0, "Coastal_Inundation_m": 0.37, "Road_km": 0.0099999999996314044, "Fluvial_Flood_Loss": 0, "Coastal_Flood_Loss": 219, "Loss": 219 }, "geometry": { "type": "LineString", "coordinates": [ [ -159.796106283557435, -21.199344165422207 ], [ -159.796195575336185, -21.199334998132464 ] ] } },
{ "type": "Feature", "properties": { "UseType": "primary", "Asset": "Road", "Value": 11235, "Details": "Ara Tapu", "Structure": null, "Wall_Material": null, "Condition": null, "Admin1_Region": "Rarotonga", "Admin2_Region": "Rarotonga", "WindGust_kmph": 149, "Fluvial_Inundation_m": 0.0, "Coastal_Inundation_m": 0.2, "Road_km": 0.0099999999999630454, "Fluvial_Flood_Loss": 0, "Coastal_Flood_Loss": 90, "Loss": 90 }, "geometry": { "type": "LineString", "coordinates": [ [ -159.796195575336185, -21.199334998132464 ], [ -159.7962277, -21.1993317 ], [ -159.796285170148934, -21.199329638290632 ] ] } },
{ "type": "Feature", "properties": { "UseType": "primary", "Asset": "Road", "Value": 11210, "Details": "Ara Tapu", "Structure": null, "Wall_Material": null, "Condition": null, "Admin1_Region": "Rarotonga", "Admin2_Region": "Rarotonga", "WindGust_kmph": 210, "Fluvial_Inundation_m": 0.0, "Coastal_Inundation_m": 0.21, "Road_km": 0.0099999999986843946, "Fluvial_Flood_Loss": 0, "Coastal_Flood_Loss": 92, "Loss": 92 }, "geometry": { "type": "LineString", "coordinates": [ [ -159.817743741251178, -21.256439613359873 ], [ -159.817701, -21.2564505 ], [ -159.817655674818042, -21.256454448266297 ] ] } },
{ "type": "Feature", "properties": { "UseType": "primary", "Asset": "Road", "Value": 11206, "Details": "Ara Tapu", "Structure": null, "Wall_Material": null, "Condition": null, "Admin1_Region": "Rarotonga", "Admin2_Region": "Rarotonga", "WindGust_kmph": 171, "Fluvial_Inundation_m": 0.0, "Coastal_Inundation_m": 0.11, "Road_km": 0.010000000000551011, "Fluvial_Flood_Loss": 0, "Coastal_Flood_Loss": 50, "Loss": 50 }, "geometry": { "type": "LineString", "coordinates": [ [ -159.816856656018956, -21.201488865177001 ], [ -159.816929610086788, -21.201537733097727 ] ] } },
{ "type": "Feature", "properties": { "UseType": "primary", "Asset": "Road", "Value": 11206, "Details": "Ara Tapu", "Structure": null, "Wall_Material": null, "Condition": null, "Admin1_Region": "Rarotonga", "Admin2_Region": "Rarotonga", "WindGust_kmph": 165, "Fluvial_Inundation_m": 0.0, "Coastal_Inundation_m": 0.12, "Road_km": 0.0099999999984674466, "Fluvial_Flood_Loss": 0, "Coastal_Flood_Loss": 54, "Loss": 54 }, "geometry": { "type": "LineString", "coordinates": [ [ -159.816929610086788, -21.201537733097727 ], [ -159.81693180000002, -21.2015392 ], [ -159.816998476912403, -21.201591498542275 ] ] } },
{ "type": "Feature", "properties": { "UseType": "primary", "Asset": "Road", "Value": 11206, "Details": "Ara Tapu", "Structure": null, "Wall_Material": null, "Condition": null, "Admin1_Region": "Rarotonga", "Admin2_Region": "Rarotonga", "WindGust_kmph": 165, "Fluvial_Inundation_m": 0.0, "Coastal_Inundation_m": 0.06, "Road_km": 0.0099999999993142311, "Fluvial_Flood_Loss": 0, "Coastal_Flood_Loss": 27, "Loss": 27 }, "geometry": { "type": "LineString", "coordinates": [ [ -159.816998476912403, -21.201591498542275 ], [ -159.8170213, -21.2016094 ], [ -159.817060804980912, -21.20165150971 ] ] } },
{ "type": "Feature", "properties": { "UseType": "primary", "Asset": "Road", "Value": 11206, "Details": "Ara Tapu", "Structure": null, "Wall_Material": null, "Condition": null, "Admin1_Region": "Rarotonga", "Admin2_Region": "Rarotonga", "WindGust_kmph": 165, "Fluvial_Inundation_m": 0.0, "Coastal_Inundation_m": 0.07, "Road_km": 0.0099999999997188831, "Fluvial_Flood_Loss": 0, "Coastal_Flood_Loss": 29, "Loss": 29 }, "geometry": { "type": "LineString", "coordinates": [ [ -159.817060804980912, -21.20165150971 ], [ -159.8170941, -21.201687 ], [ -159.817118150383152, -21.201715928693297 ] ] } },
{ "type": "Feature", "properties": { "UseType": "primary", "Asset": "Road", "Value": 11206, "Details": "Ara Tapu", "Structure": null, "Wall_Material": null, "Condition": null, "Admin1_Region": "Rarotonga", "Admin2_Region": "Rarotonga", "WindGust_kmph": 165, "Fluvial_Inundation_m": 0.0, "Coastal_Inundation_m": 0.25, "Road_km": 0.0099999999996791648, "Fluvial_Flood_Loss": 0, "Coastal_Flood_Loss": 112, "Loss": 112 }, "geometry": { "type": "LineString", "coordinates": [ [ -159.817118150383152, -21.201715928693297 ], [ -159.817164600000012, -21.2017718 ], [ -159.817171178267728, -21.201783332419446 ] ] } },
{ "type": "Feature", "properties": { "UseType": "primary", "Asset": "Road", "Value": 11206, "Details": "Ara Tapu", "Structure": null, "Wall_Material": null, "Condition": null, "Admin1_Region": "Rarotonga", "Admin2_Region": "Rarotonga", "WindGust_kmph": 153, "Fluvial_Inundation_m": 0.0, "Coastal_Inundation_m": 0.25, "Road_km": 0.0099999999999483748, "Fluvial_Flood_Loss": 0, "Coastal_Flood_Loss": 114, "Loss": 114 }, "geometry": { "type": "LineString", "coordinates": [ [ -159.817171178267728, -21.201783332419446 ], [ -159.817213357543238, -21.201857277259911 ] ] } },
{ "type": "Feature", "properties": { "UseType": "primary", "Asset": "Road", "Value": 11206, "Details": "Ara Tapu", "Structure": null, "Wall_Material": null, "Condition": null, "Admin1_Region": "Rarotonga", "Admin2_Region": "Rarotonga", "WindGust_kmph": 153, "Fluvial_Inundation_m": 0.0, "Coastal_Inundation_m": 0.26, "Road_km": 0.0099999999997406903, "Fluvial_Flood_Loss": 0, "Coastal_Flood_Loss": 116, "Loss": 116 }, "geometry": { "type": "LineString", "coordinates": [ [ -159.817213357543238, -21.201857277259911 ], [ -159.8172209, -21.2018705 ], [ -159.81724620702613, -21.201935100958131 ] ] } },
{ "type": "Feature", "properties": { "UseType": "primary", "Asset": "Road", "Value": 11206, "Details": "Ara Tapu", "Structure": null, "Wall_Material": null, "Condition": null, "Admin1_Region": "Rarotonga", "Admin2_Region": "Rarotonga", "WindGust_kmph": 153, "Fluvial_Inundation_m": 0.0, "Coastal_Inundation_m": 0.1, "Road_km": 0.0099999999998052376, "Fluvial_Flood_Loss": 0, "Coastal_Flood_Loss": 43, "Loss": 43 }, "geometry": { "type": "LineString", "coordinates": [ [ -159.81724620702613, -21.201935100958131 ], [ -159.81726740000002, -21.2019892 ], [ -159.817271508844783, -21.202015074627205 ] ] } },
{ "type": "Feature", "properties": { "UseType": "primary", "Asset": "Road", "Value": 11216, "Details": "Ara Tapu", "Structure": null, "Wall_Material": null, "Condition": null, "Admin1_Region": "Rarotonga", "Admin2_Region": "Rarotonga", "WindGust_kmph": 148, "Fluvial_Inundation_m": 0.0, "Coastal_Inundation_m": 0.1, "Road_km": 0.010000000001074625, "Fluvial_Flood_Loss": 0, "Coastal_Flood_Loss": 46, "Loss": 46 }, "geometry": { "type": "LineString", "coordinates": [ [ -159.795482472239058, -21.199417118506542 ], [ -159.795571426860789, -21.199405444709843 ] ] } },
{ "type": "Feature", "properties": { "UseType": "primary", "Asset": "Road", "Value": 11216, "Details": "Ara Tapu", "Structure": null, "Wall_Material": null, "Condition": null, "Admin1_Region": "Rarotonga", "Admin2_Region": "Rarotonga", "WindGust_kmph": 148, "Fluvial_Inundation_m": 0.0, "Coastal_Inundation_m": 0.21, "Road_km": 0.010000000001074625, "Fluvial_Flood_Loss": 0, "Coastal_Flood_Loss": 93, "Loss": 93 }, "geometry": { "type": "LineString", "coordinates": [ [ -159.795571426860789, -21.199405444709843 ], [ -159.795660381482548, -21.199393770912241 ] ] } },
{ "type": "Feature", "properties": { "UseType": "primary", "Asset": "Road", "Value": 11216, "Details": "Ara Tapu", "Structure": null, "Wall_Material": null, "Condition": null, "Admin1_Region": "Rarotonga", "Admin2_Region": "Rarotonga", "WindGust_kmph": 149, "Fluvial_Inundation_m": 0.0, "Coastal_Inundation_m": 0.26, "Road_km": 0.0099999999983080567, "Fluvial_Flood_Loss": 0, "Coastal_Flood_Loss": 121, "Loss": 121 }, "geometry": { "type": "LineString", "coordinates": [ [ -159.795660381482548, -21.199393770912241 ], [ -159.7957135, -21.1993868 ], [ -159.795749441100526, -21.199382854586105 ] ] } },
{ "type": "Feature", "properties": { "UseType": "primary", "Asset": "Road", "Value": 11216, "Details": "Ara Tapu", "Structure": null, "Wall_Material": null, "Condition": null, "Admin1_Region": "Rarotonga", "Admin2_Region": "Rarotonga", "WindGust_kmph": 149, "Fluvial_Inundation_m": 0.0, "Coastal_Inundation_m": 0.35, "Road_km": 0.0099999999985918991, "Fluvial_Flood_Loss": 0, "Coastal_Flood_Loss": 203, "Loss": 203 }, "geometry": { "type": "LineString", "coordinates": [ [ -159.795749441100526, -21.199382854586105 ], [ -159.795838656350583, -21.199373061032244 ] ] } },
{ "type": "Feature", "properties": { "UseType": "primary", "Asset": "Road", "Value": 986, "Details": "Ara Tapu", "Structure": null, "Wall_Material": null, "Condition": null, "Admin1_Region": "Rarotonga", "Admin2_Region": "Rarotonga", "WindGust_kmph": 149, "Fluvial_Inundation_m": 0.0, "Coastal_Inundation_m": 0.35, "Road_km": 0.00087918258626975112, "Fluvial_Flood_Loss": 0, "Coastal_Flood_Loss": 17, "Loss": 17 }, "geometry": { "type": "LineString", "coordinates": [ [ -159.795838656350583, -21.199373061032244 ], [ -159.79584650000001, -21.1993722 ] ] } },
{ "type": "Feature", "properties": { "UseType": "primary", "Asset": "Road", "Value": 10239, "Details": "Ara Tapu", "Structure": null, "Wall_Material": null, "Condition": null, "Admin1_Region": "Rarotonga", "Admin2_Region": "Rarotonga", "WindGust_kmph": 149, "Fluvial_Inundation_m": 0.0, "Coastal_Inundation_m": 0.5, "Road_km": 0.0091130384592820989, "Fluvial_Flood_Loss": 0, "Coastal_Flood_Loss": 303, "Loss": 303 }, "geometry": { "type": "LineString", "coordinates": [ [ -159.79584650000001, -21.1993722 ], [ -159.7959277, -21.1993625 ] ] } },
{ "type": "Feature", "properties": { "UseType": "footway", "Asset": "Road", "Value": 373, "Details": null, "Structure": null, "Wall_Material": null, "Condition": null, "Admin1_Region": "Rarotonga", "Admin2_Region": "Rarotonga", "WindGust_kmph": 149, "Fluvial_Inundation_m": 0.0, "Coastal_Inundation_m": 0.5, "Road_km": 0.010000000001753233, "Fluvial_Flood_Loss": 0, "Coastal_Flood_Loss": 59, "Loss": 59 }, "geometry": { "type": "LineString", "coordinates": [ [ -159.7959277, -21.1993625 ], [ -159.795947500000011, -21.1994231 ], [ -159.795969384054075, -21.1994231 ] ] } },
{ "type": "Feature", "properties": { "UseType": "footway", "Asset": "Road", "Value": 373, "Details": null, "Structure": null, "Wall_Material": null, "Condition": null, "Admin1_Region": "Rarotonga", "Admin2_Region": "Rarotonga", "WindGust_kmph": 149, "Fluvial_Inundation_m": 0.0, "Coastal_Inundation_m": 0.13, "Road_km": 0.010000000001304887, "Fluvial_Flood_Loss": 0, "Coastal_Flood_Loss": 15, "Loss": 15 }, "geometry": { "type": "LineString", "coordinates": [ [ -159.795969384054075, -21.1994231 ], [ -159.796049399999987, -21.1994231 ], [ -159.796058658075737, -21.199426140258694 ] ] } },
{ "type": "Feature", "properties": { "UseType": "footway", "Asset": "Road", "Value": 373, "Details": null, "Structure": null, "Wall_Material": null, "Condition": null, "Admin1_Region": "Rarotonga", "Admin2_Region": "Rarotonga", "WindGust_kmph": 149, "Fluvial_Inundation_m": 0.0, "Coastal_Inundation_m": 0.12, "Road_km": 0.010000000001724303, "Fluvial_Flood_Loss": 0, "Coastal_Flood_Loss": 14, "Loss": 14 }, "geometry": { "type": "LineString", "coordinates": [ [ -159.796058658075737, -21.199426140258694 ], [ -159.796143387340862, -21.199453964491813 ] ] } },
{ "type": "Feature", "properties": { "UseType": "service", "Asset": "Road", "Value": 372, "Details": null, "Structure": null, "Wall_Material": null, "Condition": null, "Admin1_Region": "Rarotonga", "Admin2_Region": "Rarotonga", "WindGust_kmph": 148, "Fluvial_Inundation_m": 0.0, "Coastal_Inundation_m": 0.14, "Road_km": 0.010000000000091332, "Fluvial_Flood_Loss": 0, "Coastal_Flood_Loss": 16, "Loss": 16 }, "geometry": { "type": "LineString", "coordinates": [ [ -159.796480899999978, -21.1993245 ], [ -159.7964842, -21.1992795 ], [ -159.796478265506693, -21.199241250680892 ] ] } },
{ "type": "Feature", "properties": { "UseType": "service", "Asset": "Road", "Value": 372, "Details": null, "Structure": null, "Wall_Material": null, "Condition": null, "Admin1_Region": "Rarotonga", "Admin2_Region": "Rarotonga", "WindGust_kmph": 148, "Fluvial_Inundation_m": 0.0, "Coastal_Inundation_m": 0.45, "Road_km": 0.0099999999999312323, "Fluvial_Flood_Loss": 0, "Coastal_Flood_Loss": 53, "Loss": 53 }, "geometry": { "type": "LineString", "coordinates": [ [ -159.796478265506693, -21.199241250680892 ], [ -159.7964705, -21.1991912 ], [ -159.796457891829931, -21.199160171084152 ] ] } },
{ "type": "Feature", "properties": { "UseType": "service", "Asset": "Road", "Value": 372, "Details": null, "Structure": null, "Wall_Material": null, "Condition": null, "Admin1_Region": "Rarotonga", "Admin2_Region": "Rarotonga", "WindGust_kmph": 148, "Fluvial_Inundation_m": 0.0, "Coastal_Inundation_m": 0.64, "Road_km": 0.010000000001755247, "Fluvial_Flood_Loss": 0, "Coastal_Flood_Loss": 66, "Loss": 66 }, "geometry": { "type": "LineString", "coordinates": [ [ -159.796457891829931, -21.199160171084152 ], [ -159.796441, -21.1991186 ], [ -159.796401932502988, -21.199103846414665 ] ] } },
{ "type": "Feature", "properties": { "UseType": "service", "Asset": "Road", "Value": 372, "Details": null, "Structure": null, "Wall_Material": null, "Condition": null, "Admin1_Region": "Rarotonga", "Admin2_Region": "Rarotonga", "WindGust_kmph": 148, "Fluvial_Inundation_m": 0.0, "Coastal_Inundation_m": 0.87, "Road_km": 0.0099999999986933544, "Fluvial_Flood_Loss": 0, "Coastal_Flood_Loss": 78, "Loss": 78 }, "geometry": { "type": "LineString", "coordinates": [ [ -159.796401932502988, -21.199103846414665 ], [ -159.796341700000028, -21.1990811 ], [ -159.796317415834636, -21.199085996001678 ] ] } },
{ "type": "Feature", "properties": { "UseType": "service", "Asset": "Road", "Value": 366, "Details": null, "Structure": null, "Wall_Material": null, "Condition": null, "Admin1_Region": "Rarotonga", "Admin2_Region": "Rarotonga", "WindGust_kmph": 148, "Fluvial_Inundation_m": 0.0, "Coastal_Inundation_m": 0.85, "Road_km": 0.0098304952270984319, "Fluvial_Flood_Loss": 0, "Coastal_Flood_Loss": 76, "Loss": 76 }, "geometry": { "type": "LineString", "coordinates": [ [ -159.796229613773903, -21.199103698030797 ], [ -159.796143300000011, -21.1991211 ] ] } },
{ "type": "Feature", "properties": { "UseType": "service", "Asset": "Road", "Value": 375, "Details": null, "Structure": null, "Wall_Material": null, "Condition": null, "Admin1_Region": "Atiu", "Admin2_Region": "Atiu", "WindGust_kmph": 113, "Fluvial_Inundation_m": 0.0, "Coastal_Inundation_m": 0.93, "Road_km": 0.0099999999996938684, "Fluvial_Flood_Loss": 0, "Coastal_Flood_Loss": 82, "Loss": 82 }, "geometry": { "type": "LineString", "coordinates": [ [ -158.139418749703765, -19.97877573702694 ], [ -158.139497524601751, -19.978735158820097 ] ] } },
{ "type": "Feature", "properties": { "UseType": "service", "Asset": "Road", "Value": 372, "Details": null, "Structure": null, "Wall_Material": null, "Condition": null, "Admin1_Region": "Rarotonga", "Admin2_Region": "Rarotonga", "WindGust_kmph": 148, "Fluvial_Inundation_m": 0.0, "Coastal_Inundation_m": 0.89, "Road_km": 0.010000000001832881, "Fluvial_Flood_Loss": 0, "Coastal_Flood_Loss": 79, "Loss": 79 }, "geometry": { "type": "LineString", "coordinates": [ [ -159.796317415834636, -21.199085996001678 ], [ -159.796229613773903, -21.199103698030797 ] ] } },
{ "type": "Feature", "properties": { "UseType": "service", "Asset": "Road", "Value": 371, "Details": null, "Structure": null, "Wall_Material": null, "Condition": null, "Admin1_Region": "Mangaia", "Admin2_Region": "Mangaia", "WindGust_kmph": 218, "Fluvial_Inundation_m": 0.0, "Coastal_Inundation_m": 0.64, "Road_km": 0.010000000000507128, "Fluvial_Flood_Loss": 0, "Coastal_Flood_Loss": 66, "Loss": 66 }, "geometry": { "type": "LineString", "coordinates": [ [ -157.952831506689563, -21.911385534952394 ], [ -157.9528985, -21.9113529 ], [ -157.95291263673289, -21.911352073118714 ] ] } },
{ "type": "Feature", "properties": { "UseType": "service", "Asset": "Road", "Value": 371, "Details": null, "Structure": null, "Wall_Material": null, "Condition": null, "Admin1_Region": "Mangaia", "Admin2_Region": "Mangaia", "WindGust_kmph": 215, "Fluvial_Inundation_m": 0.0, "Coastal_Inundation_m": 0.91, "Road_km": 0.0099999999982177627, "Fluvial_Flood_Loss": 0, "Coastal_Flood_Loss": 80, "Loss": 80 }, "geometry": { "type": "LineString", "coordinates": [ [ -157.95291263673289, -21.911352073118714 ], [ -157.95300229026077, -21.911346829132899 ] ] } },
{ "type": "Feature", "properties": { "UseType": "service", "Asset": "Road", "Value": 371, "Details": null, "Structure": null, "Wall_Material": null, "Condition": null, "Admin1_Region": "Mangaia", "Admin2_Region": "Mangaia", "WindGust_kmph": 215, "Fluvial_Inundation_m": 0.0, "Coastal_Inundation_m": 1.18, "Road_km": 0.0099999999982177627, "Fluvial_Flood_Loss": 0, "Coastal_Flood_Loss": 94, "Loss": 94 }, "geometry": { "type": "LineString", "coordinates": [ [ -157.95300229026077, -21.911346829132899 ], [ -157.953091943788678, -21.911341585146907 ] ] } },
{ "type": "Feature", "properties": { "UseType": "service", "Asset": "Road", "Value": 375, "Details": null, "Structure": null, "Wall_Material": null, "Condition": null, "Admin1_Region": "Atiu", "Admin2_Region": "Atiu", "WindGust_kmph": 112, "Fluvial_Inundation_m": 0.0, "Coastal_Inundation_m": 2.85, "Road_km": 0.0099999999994700526, "Fluvial_Flood_Loss": 0, "Coastal_Flood_Loss": 154, "Loss": 154 }, "geometry": { "type": "LineString", "coordinates": [ [ -158.139497524601751, -19.978735158820097 ], [ -158.139576299499709, -19.978694580602806 ] ] } },
{ "type": "Feature", "properties": { "UseType": "service", "Asset": "Road", "Value": 199, "Details": null, "Structure": null, "Wall_Material": null, "Condition": null, "Admin1_Region": "Atiu", "Admin2_Region": "Atiu", "WindGust_kmph": 112, "Fluvial_Inundation_m": 0.0, "Coastal_Inundation_m": 2.85, "Road_km": 0.005293627965782562, "Fluvial_Flood_Loss": 0, "Coastal_Flood_Loss": 81, "Loss": 81 }, "geometry": { "type": "LineString", "coordinates": [ [ -158.139576299499709, -19.978694580602806 ], [ -158.139618, -19.9786731 ] ] } },
{ "type": "Feature", "properties": { "UseType": "service", "Asset": "Road", "Value": 371, "Details": null, "Structure": null, "Wall_Material": null, "Condition": null, "Admin1_Region": "Mangaia", "Admin2_Region": "Mangaia", "WindGust_kmph": 215, "Fluvial_Inundation_m": 0.0, "Coastal_Inundation_m": 1.27, "Road_km": 0.0099999999982177627, "Fluvial_Flood_Loss": 0, "Coastal_Flood_Loss": 99, "Loss": 99 }, "geometry": { "type": "LineString", "coordinates": [ [ -157.953091943788678, -21.911341585146907 ], [ -157.953181597316558, -21.911336341160698 ] ] } },
{ "type": "Feature", "properties": { "UseType": "service", "Asset": "Road", "Value": 371, "Details": null, "Structure": null, "Wall_Material": null, "Condition": null, "Admin1_Region": "Mangaia", "Admin2_Region": "Mangaia", "WindGust_kmph": 228, "Fluvial_Inundation_m": 0.0, "Coastal_Inundation_m": 1.27, "Road_km": 0.01000000000051492, "Fluvial_Flood_Loss": 0, "Coastal_Flood_Loss": 99, "Loss": 99 }, "geometry": { "type": "LineString", "coordinates": [ [ -157.953181597316558, -21.911336341160698 ], [ -157.953235299999989, -21.9113332 ], [ -157.953266580956409, -21.911349773022113 ] ] } },
{ "type": "Feature", "properties": { "UseType": "track", "Asset": "Road", "Value": 371, "Details": null, "Structure": null, "Wall_Material": null, "Condition": null, "Admin1_Region": "Mangaia", "Admin2_Region": "Mangaia", "WindGust_kmph": 214, "Fluvial_Inundation_m": 0.0, "Coastal_Inundation_m": 0.8, "Road_km": 0.010000000001566717, "Fluvial_Flood_Loss": 0, "Coastal_Flood_Loss": 74, "Loss": 74 }, "geometry": { "type": "LineString", "coordinates": [ [ -157.953500062554212, -21.913054564486487 ], [ -157.953547199999974, -21.9130238 ], [ -157.953578771290069, -21.913017931635565 ] ] } },
{ "type": "Feature", "properties": { "UseType": "track", "Asset": "Road", "Value": 371, "Details": null, "Structure": null, "Wall_Material": null, "Condition": null, "Admin1_Region": "Mangaia", "Admin2_Region": "Mangaia", "WindGust_kmph": 214, "Fluvial_Inundation_m": 0.0, "Coastal_Inundation_m": 0.8, "Road_km": 0.0099999999986147056, "Fluvial_Flood_Loss": 0, "Coastal_Flood_Loss": 74, "Loss": 74 }, "geometry": { "type": "LineString", "coordinates": [ [ -157.953578771290069, -21.913017931635565 ], [ -157.953666852387983, -21.913001559418191 ] ] } },
{ "type": "Feature", "properties": { "UseType": "service", "Asset": "Road", "Value": 370, "Details": null, "Structure": null, "Wall_Material": null, "Condition": null, "Admin1_Region": "Mangaia", "Admin2_Region": "Mangaia", "WindGust_kmph": 218, "Fluvial_Inundation_m": 0.0, "Coastal_Inundation_m": 0.54, "Road_km": 0.010000000000556649, "Fluvial_Flood_Loss": 0, "Coastal_Flood_Loss": 60, "Loss": 60 }, "geometry": { "type": "LineString", "coordinates": [ [ -157.952839857085252, -21.911468235197809 ], [ -157.95287818277717, -21.911392858647091 ] ] } },
{ "type": "Feature", "properties": { "UseType": "service", "Asset": "Road", "Value": 196, "Details": null, "Structure": null, "Wall_Material": null, "Condition": null, "Admin1_Region": "Mangaia", "Admin2_Region": "Mangaia", "WindGust_kmph": 218, "Fluvial_Inundation_m": 0.0, "Coastal_Inundation_m": 0.64, "Road_km": 0.0053012018340630514, "Fluvial_Flood_Loss": 0, "Coastal_Flood_Loss": 35, "Loss": 35 }, "geometry": { "type": "LineString", "coordinates": [ [ -157.95287818277717, -21.911392858647091 ], [ -157.9528985, -21.9113529 ] ] } },
{ "type": "Feature", "properties": { "UseType": "primary", "Asset": "Road", "Value": 11219, "Details": "Ara Tapu", "Structure": null, "Wall_Material": null, "Condition": null, "Admin1_Region": "Rarotonga", "Admin2_Region": "Rarotonga", "WindGust_kmph": 231, "Fluvial_Inundation_m": 0.0, "Coastal_Inundation_m": 0.85, "Road_km": 0.010000000001300467, "Fluvial_Flood_Loss": 0, "Coastal_Flood_Loss": 725, "Loss": 725 }, "geometry": { "type": "LineString", "coordinates": [ [ -159.768341278227354, -21.267624244344148 ], [ -159.76826408337277, -21.267667057423782 ] ] } },
{ "type": "Feature", "properties": { "UseType": "primary", "Asset": "Road", "Value": 11219, "Details": "Ara Tapu", "Structure": null, "Wall_Material": null, "Condition": null, "Admin1_Region": "Rarotonga", "Admin2_Region": "Rarotonga", "WindGust_kmph": 231, "Fluvial_Inundation_m": 0.0, "Coastal_Inundation_m": 0.51, "Road_km": 0.010000000001300467, "Fluvial_Flood_Loss": 0, "Coastal_Flood_Loss": 345, "Loss": 345 }, "geometry": { "type": "LineString", "coordinates": [ [ -159.76826408337277, -21.267667057423782 ], [ -159.768186888518159, -21.267709870490961 ] ] } },
{ "type": "Feature", "properties": { "UseType": "primary", "Asset": "Road", "Value": 11219, "Details": "Ara Tapu", "Structure": null, "Wall_Material": null, "Condition": null, "Admin1_Region": "Rarotonga", "Admin2_Region": "Rarotonga", "WindGust_kmph": 216, "Fluvial_Inundation_m": 0.0, "Coastal_Inundation_m": 0.96, "Road_km": 0.010000000001043095, "Fluvial_Flood_Loss": 0, "Coastal_Flood_Loss": 847, "Loss": 847 }, "geometry": { "type": "LineString", "coordinates": [ [ -159.767878109099854, -21.26788112263517 ], [ -159.767813600000011, -21.26791690000001 ], [ -159.767801119897086, -21.267924248108184 ] ] } },
{ "type": "Feature", "properties": { "UseType": "primary", "Asset": "Road", "Value": 11219, "Details": "Ara Tapu", "Structure": null, "Wall_Material": null, "Condition": null, "Admin1_Region": "Rarotonga", "Admin2_Region": "Rarotonga", "WindGust_kmph": 224, "Fluvial_Inundation_m": 0.0, "Coastal_Inundation_m": 0.96, "Road_km": 0.0099999999995963214, "Fluvial_Flood_Loss": 0, "Coastal_Flood_Loss": 847, "Loss": 847 }, "geometry": { "type": "LineString", "coordinates": [ [ -159.767801119897086, -21.267924248108184 ], [ -159.767725176466854, -21.267968962518431 ] ] } },
{ "type": "Feature", "properties": { "UseType": "primary", "Asset": "Road", "Value": 11219, "Details": "Ara Tapu", "Structure": null, "Wall_Material": null, "Condition": null, "Admin1_Region": "Rarotonga", "Admin2_Region": "Rarotonga", "WindGust_kmph": 224, "Fluvial_Inundation_m": 0.0, "Coastal_Inundation_m": 0.73, "Road_km": 0.0099999999995963214, "Fluvial_Flood_Loss": 0, "Coastal_Flood_Loss": 595, "Loss": 595 }, "geometry": { "type": "LineString", "coordinates": [ [ -159.767725176466854, -21.267968962518431 ], [ -159.767649233036565, -21.268013676915118 ] ] } },
{ "type": "Feature", "properties": { "UseType": "primary", "Asset": "Road", "Value": 11219, "Details": "Ara Tapu", "Structure": null, "Wall_Material": null, "Condition": null, "Admin1_Region": "Rarotonga", "Admin2_Region": "Rarotonga", "WindGust_kmph": 216, "Fluvial_Inundation_m": 0.0, "Coastal_Inundation_m": 0.1, "Road_km": 0.0099999999995963214, "Fluvial_Flood_Loss": 0, "Coastal_Flood_Loss": 46, "Loss": 46 }, "geometry": { "type": "LineString", "coordinates": [ [ -159.767649233036565, -21.268013676915118 ], [ -159.767573289606332, -21.268058391298215 ] ] } }
]
}
