{
"type": "FeatureCollection",
"crs": { "type": "name", "properties": { "name": "urn:ogc:def:crs:OGC:1.3:CRS84" } },
"features": [
{ "type": "Feature", "properties": { "UseType": "Community Clinic", "Asset": "Health Facility", "Value": 0, "Details": "Ara Metua", "Structure": null, "Wall_Material": null, "Condition": null, "Admin1_Region": "Rarotonga", "Admin2_Region": "Rarotonga", "WindGust_kmph": 132, "Fluvial_Inundation_m": 0, "Coastal_Inundation_m": 0 }, "geometry": { "type": "Point", "coordinates": [ -159.80871577, -21.20573771 ] } },
{ "type": "Feature", "properties": { "UseType": "ECE", "Asset": "School", "Value": 0, "Details": "Blackrock Apii Potiki", "Structure": null, "Wall_Material": null, "Condition": null, "Admin1_Region": "Rarotonga", "Admin2_Region": "Rarotonga", "WindGust_kmph": 150, "Fluvial_Inundation_m": 0, "Coastal_Inundation_m": 0 }, "geometry": { "type": "Point", "coordinates": [ -159.81952659, -21.20599186 ] } },
{ "type": "Feature", "properties": { "UseType": "Hospital", "Asset": "Health Facility", "Value": 0, "Details": "Sanatarium Hill", "Structure": null, "Wall_Material": null, "Condition": null, "Admin1_Region": "Rarotonga", "Admin2_Region": "Rarotonga", "WindGust_kmph": 134, "Fluvial_Inundation_m": 0, "Coastal_Inundation_m": 0 }, "geometry": { "type": "Point", "coordinates": [ -159.81994683, -21.21199451 ] } },
{ "type": "Feature", "properties": { "UseType": "Secondary", "Asset": "School", "Value": 0, "Details": "Tereora College", "Structure": null, "Wall_Material": null, "Condition": null, "Admin1_Region": "Rarotonga", "Admin2_Region": "Rarotonga", "WindGust_kmph": 131, "Fluvial_Inundation_m": 0, "Coastal_Inundation_m": 0 }, "geometry": { "type": "Point", "coordinates": [ -159.80818184, -21.20614464 ] } },
{ "type": "Feature", "properties": { "UseType": "Primary", "Asset": "School", "Value": 0, "Details": "St Joseph's School", "Structure": null, "Wall_Material": null, "Condition": null, "Admin1_Region": "Rarotonga", "Admin2_Region": "Rarotonga", "WindGust_kmph": 138, "Fluvial_Inundation_m": 0, "Coastal_Inundation_m": 0 }, "geometry": { "type": "Point", "coordinates": [ -159.780610419999988, -21.20732541 ] } },
{ "type": "Feature", "properties": { "UseType": "Junior Secondary", "Asset": "School", "Value": 0, "Details": "Apii Nikao", "Structure": null, "Wall_Material": null, "Condition": null, "Admin1_Region": "Rarotonga", "Admin2_Region": "Rarotonga", "WindGust_kmph": 135, "Fluvial_Inundation_m": 0, "Coastal_Inundation_m": 0 }, "geometry": { "type": "Point", "coordinates": [ -159.81653251, -21.2050527 ] } },
{ "type": "Feature", "properties": { "UseType": "Community Clinic", "Asset": "Health Facility", "Value": 0, "Details": "Victoria Rd, Ngatipa Tapere", "Structure": null, "Wall_Material": null, "Condition": null, "Admin1_Region": "Rarotonga", "Admin2_Region": "Rarotonga", "WindGust_kmph": 134, "Fluvial_Inundation_m": 0, "Coastal_Inundation_m": 0 }, "geometry": { "type": "Point", "coordinates": [ -159.768959419999987, -21.20752706 ] } },
{ "type": "Feature", "properties": { "UseType": "Community Clinic", "Asset": "Health Facility", "Value": 0, "Details": "Main Road, Te Puna Tapere", "Structure": null, "Wall_Material": null, "Condition": null, "Admin1_Region": "Rarotonga", "Admin2_Region": "Rarotonga", "WindGust_kmph": 195, "Fluvial_Inundation_m": 0, "Coastal_Inundation_m": 0 }, "geometry": { "type": "Point", "coordinates": [ -159.757069769999987, -21.27200776 ] } },
{ "type": "Feature", "properties": { "UseType": "Junior Secondary", "Asset": "School", "Value": 0, "Details": "Apii Avarua", "Structure": null, "Wall_Material": null, "Condition": null, "Admin1_Region": "Rarotonga", "Admin2_Region": "Rarotonga", "WindGust_kmph": 136, "Fluvial_Inundation_m": 0, "Coastal_Inundation_m": 0 }, "geometry": { "type": "Point", "coordinates": [ -159.77109954, -21.20832125 ] } },
{ "type": "Feature", "properties": { "UseType": "Secondary", "Asset": "School", "Value": 0, "Details": "Nukutere College", "Structure": null, "Wall_Material": null, "Condition": null, "Admin1_Region": "Rarotonga", "Admin2_Region": "Rarotonga", "WindGust_kmph": 138, "Fluvial_Inundation_m": 0, "Coastal_Inundation_m": 0 }, "geometry": { "type": "Point", "coordinates": [ -159.78117179, -21.20810667 ] } },
{ "type": "Feature", "properties": { "UseType": "Primary", "Asset": "School", "Value": 0, "Details": "Apii Takitumu", "Structure": null, "Wall_Material": null, "Condition": null, "Admin1_Region": "Rarotonga", "Admin2_Region": "Rarotonga", "WindGust_kmph": 156, "Fluvial_Inundation_m": 0, "Coastal_Inundation_m": 0 }, "geometry": { "type": "Point", "coordinates": [ -159.735779369999989, -21.21814215 ] } },
{ "type": "Feature", "properties": { "UseType": "Community Clinic", "Asset": "Health Facility", "Value": 0, "Details": "Vaieke Rd, Tupapa Tapere", "Structure": null, "Wall_Material": null, "Condition": null, "Admin1_Region": "Rarotonga", "Admin2_Region": "Rarotonga", "WindGust_kmph": 166, "Fluvial_Inundation_m": 0, "Coastal_Inundation_m": 0 }, "geometry": { "type": "Point", "coordinates": [ -159.73535657, -21.21875966 ] } },
{ "type": "Feature", "properties": { "UseType": "No Water Tank", "Asset": "Evacuation Centre", "Value": 0, "Details": "Tupapa Maraerenga Meeting House", "Structure": null, "Wall_Material": null, "Condition": null, "Admin1_Region": "Rarotonga", "Admin2_Region": "Rarotonga", "WindGust_kmph": 138, "Fluvial_Inundation_m": 0, "Coastal_Inundation_m": 0 }, "geometry": { "type": "Point", "coordinates": [ -159.77032576, -21.20580269 ] } },
{ "type": "Feature", "properties": { "UseType": "Junior Secondary", "Asset": "School", "Value": 0, "Details": "Apii Te Uki Ou", "Structure": null, "Wall_Material": null, "Condition": null, "Admin1_Region": "Rarotonga", "Admin2_Region": "Rarotonga", "WindGust_kmph": 195, "Fluvial_Inundation_m": 0, "Coastal_Inundation_m": 0 }, "geometry": { "type": "Point", "coordinates": [ -159.72891169, -21.23709517 ] } },
{ "type": "Feature", "properties": { "UseType": "Secondary", "Asset": "School", "Value": 0, "Details": "Imanuela Akatemia", "Structure": null, "Wall_Material": null, "Condition": null, "Admin1_Region": "Rarotonga", "Admin2_Region": "Rarotonga", "WindGust_kmph": 168, "Fluvial_Inundation_m": 0, "Coastal_Inundation_m": 0 }, "geometry": { "type": "Point", "coordinates": [ -159.73610236, -21.26019883 ] } },
{ "type": "Feature", "properties": { "UseType": "Full amenities", "Asset": "Evacuation Centre", "Value": 0, "Details": "Takuvaine Meeting House", "Structure": null, "Wall_Material": null, "Condition": null, "Admin1_Region": "Rarotonga", "Admin2_Region": "Rarotonga", "WindGust_kmph": 134, "Fluvial_Inundation_m": 0, "Coastal_Inundation_m": 0 }, "geometry": { "type": "Point", "coordinates": [ -159.77540113, -21.20971548 ] } },
{ "type": "Feature", "properties": { "UseType": "Primary", "Asset": "School", "Value": 0, "Details": "Apii Rutaki", "Structure": null, "Wall_Material": null, "Condition": null, "Admin1_Region": "Rarotonga", "Admin2_Region": "Rarotonga", "WindGust_kmph": 174, "Fluvial_Inundation_m": 0, "Coastal_Inundation_m": 0 }, "geometry": { "type": "Point", "coordinates": [ -159.80942757, -21.25649014 ] } },
{ "type": "Feature", "properties": { "UseType": "Junior Secondary", "Asset": "School", "Value": 0, "Details": "Papaaroa Adventist School", "Structure": null, "Wall_Material": null, "Condition": null, "Admin1_Region": "Rarotonga", "Admin2_Region": "Rarotonga", "WindGust_kmph": 164, "Fluvial_Inundation_m": 0, "Coastal_Inundation_m": 0 }, "geometry": { "type": "Point", "coordinates": [ -159.76559989, -21.26821817 ] } },
{ "type": "Feature", "properties": { "UseType": "Community Clinic", "Asset": "Health Facility", "Value": 0, "Details": "Main Road, Tokerau Tapere", "Structure": null, "Wall_Material": null, "Condition": null, "Admin1_Region": "Rarotonga", "Admin2_Region": "Rarotonga", "WindGust_kmph": 135, "Fluvial_Inundation_m": 0, "Coastal_Inundation_m": 0 }, "geometry": { "type": "Point", "coordinates": [ -159.82646419, -21.21398249 ] } },
{ "type": "Feature", "properties": { "UseType": "Junior Secondary", "Asset": "School", "Value": 0, "Details": "Apii Arorangi", "Structure": null, "Wall_Material": null, "Condition": null, "Admin1_Region": "Rarotonga", "Admin2_Region": "Rarotonga", "WindGust_kmph": 132, "Fluvial_Inundation_m": 0, "Coastal_Inundation_m": 0 }, "geometry": { "type": "Point", "coordinates": [ -159.82833481, -21.23193322 ] } },
{ "type": "Feature", "properties": { "UseType": "No Water Tank", "Asset": "Evacuation Centre", "Value": 0, "Details": "Ngati Uritaua Hall", "Structure": null, "Wall_Material": null, "Condition": null, "Admin1_Region": "Rarotonga", "Admin2_Region": "Rarotonga", "WindGust_kmph": 137, "Fluvial_Inundation_m": 0, "Coastal_Inundation_m": 0 }, "geometry": { "type": "Point", "coordinates": [ -159.78852726, -21.20935493 ] } },
{ "type": "Feature", "properties": { "UseType": "Secondary", "Asset": "School", "Value": 0, "Details": "Titikaveka College", "Structure": null, "Wall_Material": null, "Condition": null, "Admin1_Region": "Rarotonga", "Admin2_Region": "Rarotonga", "WindGust_kmph": 165, "Fluvial_Inundation_m": 0, "Coastal_Inundation_m": 0 }, "geometry": { "type": "Point", "coordinates": [ -159.75837067, -21.26993593 ] } },
{ "type": "Feature", "properties": { "UseType": "Secondary", "Asset": "School", "Value": 0, "Details": "Mangaia School Oneroa", "Structure": null, "Wall_Material": null, "Condition": null, "Admin1_Region": "Mangaia", "Admin2_Region": "Mangaia", "WindGust_kmph": 147, "Fluvial_Inundation_m": 0, "Coastal_Inundation_m": 0 }, "geometry": { "type": "Point", "coordinates": [ -157.953939780000013, -21.91958204 ] } },
{ "type": "Feature", "properties": { "UseType": "Full amenities", "Asset": "Evacuation Centre", "Value": 0, "Details": "Rangiura Meeting House", "Structure": null, "Wall_Material": null, "Condition": null, "Admin1_Region": "Rarotonga", "Admin2_Region": "Rarotonga", "WindGust_kmph": 137, "Fluvial_Inundation_m": 0, "Coastal_Inundation_m": 0 }, "geometry": { "type": "Point", "coordinates": [ -159.79764383, -21.204221 ] } },
{ "type": "Feature", "properties": { "UseType": "Full amenities", "Asset": "Evacuation Centre", "Value": 0, "Details": "Pokoinu Meeting House", "Structure": null, "Wall_Material": null, "Condition": null, "Admin1_Region": "Rarotonga", "Admin2_Region": "Rarotonga", "WindGust_kmph": 135, "Fluvial_Inundation_m": 0, "Coastal_Inundation_m": 0 }, "geometry": { "type": "Point", "coordinates": [ -159.818271360000011, -21.20495844 ] } },
{ "type": "Feature", "properties": { "UseType": "Primary", "Asset": "School", "Value": 0, "Details": "Mangaia School Tamarua", "Structure": null, "Wall_Material": null, "Condition": null, "Admin1_Region": "Mangaia", "Admin2_Region": "Mangaia", "WindGust_kmph": 157, "Fluvial_Inundation_m": 0, "Coastal_Inundation_m": 0 }, "geometry": { "type": "Point", "coordinates": [ -157.912683359999988, -21.95372134 ] } },
{ "type": "Feature", "properties": { "UseType": "Full amenities", "Asset": "Evacuation Centre", "Value": 0, "Details": "Nikao CICC Hall", "Structure": null, "Wall_Material": null, "Condition": null, "Admin1_Region": "Rarotonga", "Admin2_Region": "Rarotonga", "WindGust_kmph": 134, "Fluvial_Inundation_m": 0, "Coastal_Inundation_m": 0 }, "geometry": { "type": "Point", "coordinates": [ -159.81028031, -21.20632196 ] } },
{ "type": "Feature", "properties": { "UseType": "Full amenities", "Asset": "Evacuation Centre", "Value": 0, "Details": "Arorangi CICC Hall", "Structure": null, "Wall_Material": null, "Condition": null, "Admin1_Region": "Rarotonga", "Admin2_Region": "Rarotonga", "WindGust_kmph": 131, "Fluvial_Inundation_m": 0, "Coastal_Inundation_m": 0 }, "geometry": { "type": "Point", "coordinates": [ -159.82672566, -21.23249555 ] } },
{ "type": "Feature", "properties": { "UseType": "Full amenities", "Asset": "Evacuation Centre", "Value": 0, "Details": "Kavera Meeting House", "Structure": null, "Wall_Material": null, "Condition": null, "Admin1_Region": "Rarotonga", "Admin2_Region": "Rarotonga", "WindGust_kmph": 140, "Fluvial_Inundation_m": 0, "Coastal_Inundation_m": 0 }, "geometry": { "type": "Point", "coordinates": [ -159.82214534, -21.25032356 ] } },
{ "type": "Feature", "properties": { "UseType": "No Water Tank", "Asset": "Evacuation Centre", "Value": 0, "Details": "The Kent Hall", "Structure": null, "Wall_Material": null, "Condition": null, "Admin1_Region": "Rarotonga", "Admin2_Region": "Rarotonga", "WindGust_kmph": 190, "Fluvial_Inundation_m": 0, "Coastal_Inundation_m": 0 }, "geometry": { "type": "Point", "coordinates": [ -159.75960258, -21.27107635 ] } },
{ "type": "Feature", "properties": { "UseType": "Full amenities", "Asset": "Evacuation Centre", "Value": 0, "Details": "Youth With A Mission", "Structure": null, "Wall_Material": null, "Condition": null, "Admin1_Region": "Rarotonga", "Admin2_Region": "Rarotonga", "WindGust_kmph": 207, "Fluvial_Inundation_m": 0, "Coastal_Inundation_m": 0 }, "geometry": { "type": "Point", "coordinates": [ -159.78063891, -21.26550424 ] } },
{ "type": "Feature", "properties": { "UseType": "Water_Tank,Toilets,Communications", "Asset": "Evacuation Centre", "Value": 0, "Details": "Apostolic church Mangaia", "Structure": null, "Wall_Material": null, "Condition": null, "Admin1_Region": "Mangaia", "Admin2_Region": "Mangaia", "WindGust_kmph": 145, "Fluvial_Inundation_m": 0, "Coastal_Inundation_m": 0 }, "geometry": { "type": "Point", "coordinates": [ -157.95560791, -21.92472582 ] } },
{ "type": "Feature", "properties": { "UseType": "Full amenities", "Asset": "Evacuation Centre", "Value": 0, "Details": "Tupapa Meeting House", "Structure": null, "Wall_Material": null, "Condition": null, "Admin1_Region": "Rarotonga", "Admin2_Region": "Rarotonga", "WindGust_kmph": 137, "Fluvial_Inundation_m": 0, "Coastal_Inundation_m": 0 }, "geometry": { "type": "Point", "coordinates": [ -159.76814866, -21.2052141 ] } },
{ "type": "Feature", "properties": { "UseType": "Full amenities", "Asset": "Evacuation Centre", "Value": 0, "Details": "Arorangi Sports Club House", "Structure": null, "Wall_Material": null, "Condition": null, "Admin1_Region": "Rarotonga", "Admin2_Region": "Rarotonga", "WindGust_kmph": 133, "Fluvial_Inundation_m": 0, "Coastal_Inundation_m": 0 }, "geometry": { "type": "Point", "coordinates": [ -159.82534902, -21.23036941 ] } },
{ "type": "Feature", "properties": { "UseType": "Water_Tank,Toilets,Communications,other", "Asset": "Evacuation Centre", "Value": 0, "Details": "Mangaia Christian Centre", "Structure": null, "Wall_Material": null, "Condition": null, "Admin1_Region": "Mangaia", "Admin2_Region": "Mangaia", "WindGust_kmph": 146, "Fluvial_Inundation_m": 0, "Coastal_Inundation_m": 0 }, "geometry": { "type": "Point", "coordinates": [ -157.95396524, -21.92517247 ] } },
{ "type": "Feature", "properties": { "UseType": "Community Clinic", "Asset": "Health Facility", "Value": 0, "Details": "Central Arutanga (Vaine Tini Center)", "Structure": null, "Wall_Material": null, "Condition": null, "Admin1_Region": "Aitutaki", "Admin2_Region": "Aitutaki", "WindGust_kmph": 115, "Fluvial_Inundation_m": 0, "Coastal_Inundation_m": 0 }, "geometry": { "type": "Point", "coordinates": [ -159.797558149999986, -18.86549838 ] } },
{ "type": "Feature", "properties": { "UseType": "Primary", "Asset": "School", "Value": 0, "Details": "Mangaia School Ivirua", "Structure": null, "Wall_Material": null, "Condition": null, "Admin1_Region": "Mangaia", "Admin2_Region": "Mangaia", "WindGust_kmph": 150, "Fluvial_Inundation_m": 0, "Coastal_Inundation_m": 0 }, "geometry": { "type": "Point", "coordinates": [ -157.896508469999986, -21.9167368 ] } },
{ "type": "Feature", "properties": { "UseType": "Water_Tank,Toilets,Communications", "Asset": "Evacuation Centre", "Value": 0, "Details": "Mangaia School", "Structure": null, "Wall_Material": null, "Condition": null, "Admin1_Region": "Mangaia", "Admin2_Region": "Mangaia", "WindGust_kmph": 139, "Fluvial_Inundation_m": 0, "Coastal_Inundation_m": 0 }, "geometry": { "type": "Point", "coordinates": [ -157.95427263, -21.92099448 ] } },
{ "type": "Feature", "properties": { "UseType": "Water_Tank,Toilets,Communications", "Asset": "Evacuation Centre", "Value": 0, "Details": "Veitatei meeting house", "Structure": null, "Wall_Material": null, "Condition": null, "Admin1_Region": "Mangaia", "Admin2_Region": "Mangaia", "WindGust_kmph": 142, "Fluvial_Inundation_m": 0, "Coastal_Inundation_m": 0 }, "geometry": { "type": "Point", "coordinates": [ -157.95603159, -21.92669553 ] } },
{ "type": "Feature", "properties": { "UseType": "No Water Tank", "Asset": "Evacuation Centre", "Value": 0, "Details": "Titikaveka Catholic Church Hall", "Structure": null, "Wall_Material": null, "Condition": null, "Admin1_Region": "Rarotonga", "Admin2_Region": "Rarotonga", "WindGust_kmph": 215, "Fluvial_Inundation_m": 0, "Coastal_Inundation_m": 0 }, "geometry": { "type": "Point", "coordinates": [ -159.744610349999988, -21.27082942 ] } },
{ "type": "Feature", "properties": { "UseType": "Water_Tank,Toilets,other", "Asset": "Evacuation Centre", "Value": 0, "Details": "Tamarua Community Hall", "Structure": null, "Wall_Material": null, "Condition": null, "Admin1_Region": "Mangaia", "Admin2_Region": "Mangaia", "WindGust_kmph": 127, "Fluvial_Inundation_m": 0, "Coastal_Inundation_m": 0 }, "geometry": { "type": "Point", "coordinates": [ -157.91703812, -21.95442578 ] } },
{ "type": "Feature", "properties": { "UseType": "No Water Tank", "Asset": "Evacuation Centre", "Value": 0, "Details": "Muri Meeting House", "Structure": null, "Wall_Material": null, "Condition": null, "Admin1_Region": "Rarotonga", "Admin2_Region": "Rarotonga", "WindGust_kmph": 178, "Fluvial_Inundation_m": 0, "Coastal_Inundation_m": 0 }, "geometry": { "type": "Point", "coordinates": [ -159.73069959, -21.25387013 ] } },
{ "type": "Feature", "properties": { "UseType": "Water_Tank,Toilets,Communications", "Asset": "Evacuation Centre", "Value": 0, "Details": "Keia meeting house", "Structure": null, "Wall_Material": null, "Condition": null, "Admin1_Region": "Mangaia", "Admin2_Region": "Mangaia", "WindGust_kmph": 151, "Fluvial_Inundation_m": 0, "Coastal_Inundation_m": 0 }, "geometry": { "type": "Point", "coordinates": [ -157.951536909999987, -21.9289341 ] } },
{ "type": "Feature", "properties": { "UseType": "No Water Tank", "Asset": "Evacuation Centre", "Value": 0, "Details": "Ngatangiia LDS Church Hall", "Structure": null, "Wall_Material": null, "Condition": null, "Admin1_Region": "Rarotonga", "Admin2_Region": "Rarotonga", "WindGust_kmph": 141, "Fluvial_Inundation_m": 0, "Coastal_Inundation_m": 0 }, "geometry": { "type": "Point", "coordinates": [ -159.72964352, -21.23804375 ] } },
{ "type": "Feature", "properties": { "UseType": "No Water Tank", "Asset": "Evacuation Centre", "Value": 0, "Details": "Matavera Catholic Church Hall", "Structure": null, "Wall_Material": null, "Condition": null, "Admin1_Region": "Rarotonga", "Admin2_Region": "Rarotonga", "WindGust_kmph": 196, "Fluvial_Inundation_m": 0, "Coastal_Inundation_m": 0 }, "geometry": { "type": "Point", "coordinates": [ -159.7333679, -21.22283068 ] } },
{ "type": "Feature", "properties": { "UseType": "Water_Tank,Toilets,Communications", "Asset": "Evacuation Centre", "Value": 0, "Details": "Ivirua meeting. House", "Structure": null, "Wall_Material": null, "Condition": null, "Admin1_Region": "Mangaia", "Admin2_Region": "Mangaia", "WindGust_kmph": 149, "Fluvial_Inundation_m": 0, "Coastal_Inundation_m": 0 }, "geometry": { "type": "Point", "coordinates": [ -157.90970619, -21.95084509 ] } },
{ "type": "Feature", "properties": { "UseType": "Primary", "Asset": "School", "Value": 0, "Details": "Tekaaroa Adventist School", "Structure": null, "Wall_Material": null, "Condition": null, "Admin1_Region": "Aitutaki", "Admin2_Region": "Aitutaki", "WindGust_kmph": 105, "Fluvial_Inundation_m": 0, "Coastal_Inundation_m": 0 }, "geometry": { "type": "Point", "coordinates": [ -159.79104629, -18.8613386 ] } },
{ "type": "Feature", "properties": { "UseType": "Full amenities", "Asset": "Evacuation Centre", "Value": 0, "Details": "Matavera CICC Hall", "Structure": null, "Wall_Material": null, "Condition": null, "Admin1_Region": "Rarotonga", "Admin2_Region": "Rarotonga", "WindGust_kmph": 196, "Fluvial_Inundation_m": 0, "Coastal_Inundation_m": 0 }, "geometry": { "type": "Point", "coordinates": [ -159.733026669999987, -21.22480954 ] } },
{ "type": "Feature", "properties": { "UseType": "No Water Tank", "Asset": "Evacuation Centre", "Value": 0, "Details": "Ngatangiia CICC Hall", "Structure": null, "Wall_Material": null, "Condition": null, "Admin1_Region": "Rarotonga", "Admin2_Region": "Rarotonga", "WindGust_kmph": 173, "Fluvial_Inundation_m": 0, "Coastal_Inundation_m": 0 }, "geometry": { "type": "Point", "coordinates": [ -159.72933842, -21.2450885 ] } }
]
}
