{
  "type":"FeatureCollection",
  "features":[
    {"type":"Feature","geometry":{"coordinates":[-171.4261989,-14.0125203],"type":"Point"},"properties":{"UseType":"Secondary","Asset":"School","Value":0,"Details":"Aleipata College, BL07","Structure":null,"Wall_Material":null,"Condition":null,"Admin1_Region":"Atua","Admin2_Region":"Aleipata itupa i Lalo","WindGust_kmph":106,"Fluvial_Inundation_m":0,"Coastal_Inundation_m":0}},
    {"type":"Feature","geometry":{"coordinates":[-171.6937769,-14.0250043],"type":"Point"},"properties":{"UseType":"Secondary","Asset":"School","Value":0,"Details":"Falealili College, BL10","Structure":null,"Wall_Material":null,"Condition":null,"Admin1_Region":"Atua","Admin2_Region":"Falealili","WindGust_kmph":111,"Fluvial_Inundation_m":0,"Coastal_Inundation_m":0}},
    {"type":"Feature","geometry":{"coordinates":[-171.524362,-14.0367464],"type":"Point"},"properties":{"UseType":"Secondary","Asset":"School","Value":0,"Details":"Lepa/Lotofaga College, BL08","Structure":null,"Wall_Material":null,"Condition":null,"Admin1_Region":"Atua","Admin2_Region":"Lepa","WindGust_kmph":111,"Fluvial_Inundation_m":0,"Coastal_Inundation_m":0}},
    {"type":"Feature","geometry":{"coordinates":[-171.5242267,-14.0362342],"type":"Point"},"properties":{"UseType":"Secondary","Asset":"School","Value":0,"Details":"Lepa/Lotofaga College, BL03","Structure":null,"Wall_Material":null,"Condition":null,"Admin1_Region":"Atua","Admin2_Region":"Lepa","WindGust_kmph":108,"Fluvial_Inundation_m":0,"Coastal_Inundation_m":0}},
    {"type":"Feature","geometry":{"coordinates":[-171.6930833,-14.0247831],"type":"Point"},"properties":{"UseType":"Secondary","Asset":"School","Value":0,"Details":"Falealili College, BL07","Structure":null,"Wall_Material":null,"Condition":null,"Admin1_Region":"Atua","Admin2_Region":"Falealili","WindGust_kmph":107,"Fluvial_Inundation_m":0,"Coastal_Inundation_m":0}},
    {"type":"Feature","geometry":{"coordinates":[-172.1770223,-13.6659452],"type":"Point"},"properties":{"UseType":"National Referral Hospital","Asset":"Health Facility","Value":0,"Details":"Malietoa Tanumafili II Hospital, Staff housing","Structure":null,"Wall_Material":null,"Condition":null,"Admin1_Region":"Fa'asaleleage","Admin2_Region":"Faasaleleaga II","WindGust_kmph":144,"Fluvial_Inundation_m":0,"Coastal_Inundation_m":0}},
    {"type":"Feature","geometry":{"coordinates":[-172.17706298,-13.66619867],"type":"Point"},"properties":{"UseType":"National Referral Hospital","Asset":"Health Facility","Value":0,"Details":"Malietoa Tanumafili II Hospital, Other","Structure":null,"Wall_Material":null,"Condition":null,"Admin1_Region":"Fa'asaleleage","Admin2_Region":"Faasaleleaga II","WindGust_kmph":130,"Fluvial_Inundation_m":0,"Coastal_Inundation_m":0}},
    {"type":"Feature","geometry":{"coordinates":[-171.9963111,-13.8369631],"type":"Point"},"properties":{"UseType":"Community Health Centre","Asset":"Health Facility","Value":0,"Details":"Faleolo Medical Center, Other Urgent Care General Surgical Ward Recovery ward Medical Records Departments and Administrative Nursing services  Ancillary services (Laundry, Kitchen, Maintenance Room, Storage)","Structure":null,"Wall_Material":null,"Condition":null,"Admin1_Region":"A'ana","Admin2_Region":"Aana Alofi III","WindGust_kmph":111,"Fluvial_Inundation_m":0,"Coastal_Inundation_m":0}},
    {"type":"Feature","geometry":{"coordinates":[-171.9612345,-13.8225544],"type":"Point"},"properties":{"UseType":"Community Hospital","Asset":"Health Facility","Value":0,"Details":"Leulumoega District Hospital, Other Ancillary services (Laundry, Kitchen, Maintenance Room, Storage)  Medical Records Departments and Administrative Pharmacy Specialist units - Obstetrics Family Medicine and Primary health care Outpatient departments","Structure":null,"Wall_Material":null,"Condition":null,"Admin1_Region":"A'ana","Admin2_Region":"Aana Alofi II","WindGust_kmph":151,"Fluvial_Inundation_m":0,"Coastal_Inundation_m":0}},
    {"type":"Feature","geometry":{"coordinates":[-171.96143981,-13.82246261],"type":"Point"},"properties":{"UseType":"Community Hospital","Asset":"Health Facility","Value":0,"Details":"Leulumoega District Hospital, Other Family Medicine and Primary health care Recovery ward","Structure":null,"Wall_Material":null,"Condition":null,"Admin1_Region":"A'ana","Admin2_Region":"Aana Alofi II","WindGust_kmph":155,"Fluvial_Inundation_m":0,"Coastal_Inundation_m":0}},
    {"type":"Feature","geometry":{"coordinates":[-171.6069959,-13.88045],"type":"Point"},"properties":{"UseType":"Secondary","Asset":"School","Value":0,"Details":"Anoamaa College, BL02","Structure":null,"Wall_Material":null,"Condition":null,"Admin1_Region":"Atua","Admin2_Region":"Anoamaa West","WindGust_kmph":105,"Fluvial_Inundation_m":0,"Coastal_Inundation_m":0}},
    {"type":"Feature","geometry":{"coordinates":[-171.60034925,-13.87419331],"type":"Point"},"properties":{"UseType":"Community Health Centre","Asset":"Health Facility","Value":0,"Details":"Lufilufi Health Center, Emergency Department Family Medicine and Primary health care Specialist units - Obstetrics Pharmacy Outpatient departments","Structure":null,"Wall_Material":null,"Condition":null,"Admin1_Region":"Atua","Admin2_Region":"Anoamaa East","WindGust_kmph":156,"Fluvial_Inundation_m":0,"Coastal_Inundation_m":0}},
    {"type":"Feature","geometry":{"coordinates":[-171.6074548,-13.880347],"type":"Point"},"properties":{"UseType":"Secondary","Asset":"School","Value":0,"Details":"Anoamaa College, BL08","Structure":null,"Wall_Material":null,"Condition":null,"Admin1_Region":"Atua","Admin2_Region":"Anoamaa West","WindGust_kmph":114,"Fluvial_Inundation_m":0,"Coastal_Inundation_m":0}},
    {"type":"Feature","geometry":{"coordinates":[-171.6076993,-13.8802511],"type":"Point"},"properties":{"UseType":"Secondary","Asset":"School","Value":0,"Details":"Anoamaa College, BL15","Structure":null,"Wall_Material":null,"Condition":null,"Admin1_Region":"Atua","Admin2_Region":"Anoamaa West","WindGust_kmph":129,"Fluvial_Inundation_m":0,"Coastal_Inundation_m":0}},
    {"type":"Feature","geometry":{"coordinates":[-172.17757945,-13.66594005],"type":"Point"},"properties":{"UseType":"National Referral Hospital","Asset":"Health Facility","Value":0,"Details":"Malietoa Tanumafili II Hospital, Other Ancillary services (Laundry, Kitchen, Maintenance Room, Storage)","Structure":null,"Wall_Material":null,"Condition":null,"Admin1_Region":"Fa'asaleleage","Admin2_Region":"Faasaleleaga II","WindGust_kmph":121,"Fluvial_Inundation_m":0,"Coastal_Inundation_m":0}},
    {"type":"Feature","geometry":{"coordinates":[-171.9575146,-13.9579353],"type":"Point"},"properties":{"UseType":"Secondary","Asset":"School","Value":0,"Details":"Lefaga College, BL01","Structure":null,"Wall_Material":null,"Condition":null,"Admin1_Region":"A'ana","Admin2_Region":"Lefaga & Faleseela","WindGust_kmph":122,"Fluvial_Inundation_m":0,"Coastal_Inundation_m":0}},
    {"type":"Feature","geometry":{"coordinates":[-172.17678902,-13.66598495],"type":"Point"},"properties":{"UseType":"National Referral Hospital","Asset":"Health Facility","Value":0,"Details":"Malietoa Tanumafili II Hospital, Staff housing","Structure":null,"Wall_Material":null,"Condition":null,"Admin1_Region":"Fa'asaleleage","Admin2_Region":"Faasaleleaga II","WindGust_kmph":131,"Fluvial_Inundation_m":0,"Coastal_Inundation_m":0}},
    {"type":"Feature","geometry":{"coordinates":[-172.17685797,-13.66640821],"type":"Point"},"properties":{"UseType":"National Referral Hospital","Asset":"Health Facility","Value":0,"Details":"Malietoa Tanumafili II Hospital, Ancillary services (Laundry, Kitchen, Maintenance Room, Storage)","Structure":null,"Wall_Material":null,"Condition":null,"Admin1_Region":"Fa'asaleleage","Admin2_Region":"Faasaleleaga II","WindGust_kmph":115,"Fluvial_Inundation_m":0,"Coastal_Inundation_m":0}},
    {"type":"Feature","geometry":{"coordinates":[-172.1769854,-13.6664862],"type":"Point"},"properties":{"UseType":"National Referral Hospital","Asset":"Health Facility","Value":0,"Details":"Malietoa Tanumafili II Hospital, Other","Structure":null,"Wall_Material":null,"Condition":null,"Admin1_Region":"Fa'asaleleage","Admin2_Region":"Faasaleleaga II","WindGust_kmph":115,"Fluvial_Inundation_m":0,"Coastal_Inundation_m":0}},
    {"type":"Feature","geometry":{"coordinates":[-172.1766506,-13.6660226],"type":"Point"},"properties":{"UseType":"National Referral Hospital","Asset":"Health Facility","Value":0,"Details":"Malietoa Tanumafili II Hospital, Ancillary services (Laundry, Kitchen, Maintenance Room, Storage)  Staff housing","Structure":null,"Wall_Material":null,"Condition":null,"Admin1_Region":"Fa'asaleleage","Admin2_Region":"Faasaleleaga II","WindGust_kmph":131,"Fluvial_Inundation_m":0,"Coastal_Inundation_m":0}},
    {"type":"Feature","geometry":{"coordinates":[-172.17641445,-13.66613407],"type":"Point"},"properties":{"UseType":"National Referral Hospital","Asset":"Health Facility","Value":0,"Details":"Malietoa Tanumafili II Hospital, Staff housing","Structure":null,"Wall_Material":null,"Condition":null,"Admin1_Region":"Fa'asaleleage","Admin2_Region":"Faasaleleaga II","WindGust_kmph":134,"Fluvial_Inundation_m":0,"Coastal_Inundation_m":0}},
    {"type":"Feature","geometry":{"coordinates":[-171.9578274,-13.9580722],"type":"Point"},"properties":{"UseType":"Secondary","Asset":"School","Value":0,"Details":"Lefaga College, BL02","Structure":null,"Wall_Material":null,"Condition":null,"Admin1_Region":"A'ana","Admin2_Region":"Lefaga & Faleseela","WindGust_kmph":130,"Fluvial_Inundation_m":0,"Coastal_Inundation_m":0}},
    {"type":"Feature","geometry":{"coordinates":[-171.958227,-13.9578731],"type":"Point"},"properties":{"UseType":"Secondary","Asset":"School","Value":0,"Details":"Lefaga College, BL04","Structure":null,"Wall_Material":null,"Condition":null,"Admin1_Region":"A'ana","Admin2_Region":"Lefaga & Faleseela","WindGust_kmph":148,"Fluvial_Inundation_m":0,"Coastal_Inundation_m":0}},
    {"type":"Feature","geometry":{"coordinates":[-172.17655811,-13.666304],"type":"Point"},"properties":{"UseType":"National Referral Hospital","Asset":"Health Facility","Value":0,"Details":"Malietoa Tanumafili II Hospital, Staff housing","Structure":null,"Wall_Material":null,"Condition":null,"Admin1_Region":"Fa'asaleleage","Admin2_Region":"Faasaleleaga II","WindGust_kmph":121,"Fluvial_Inundation_m":0,"Coastal_Inundation_m":0}},
    {"type":"Feature","geometry":{"coordinates":[-172.17668507,-13.66646187],"type":"Point"},"properties":{"UseType":"National Referral Hospital","Asset":"Health Facility","Value":0,"Details":"Malietoa Tanumafili II Hospital, Staff housing","Structure":null,"Wall_Material":null,"Condition":null,"Admin1_Region":"Fa'asaleleage","Admin2_Region":"Faasaleleaga II","WindGust_kmph":121,"Fluvial_Inundation_m":0,"Coastal_Inundation_m":0}},
    {"type":"Feature","geometry":{"coordinates":[-172.1767543,-13.6666817],"type":"Point"},"properties":{"UseType":"National Referral Hospital","Asset":"Health Facility","Value":0,"Details":"Malietoa Tanumafili II Hospital, Ancillary services (Laundry, Kitchen, Maintenance Room, Storage)","Structure":null,"Wall_Material":null,"Condition":null,"Admin1_Region":"Fa'asaleleage","Admin2_Region":"Faasaleleaga II","WindGust_kmph":113,"Fluvial_Inundation_m":0,"Coastal_Inundation_m":0}},
    {"type":"Feature","geometry":{"coordinates":[-172.6344622,-13.51821],"type":"Point"},"properties":{"UseType":"Secondary","Asset":"School","Value":0,"Details":"Itu o Asau College, BL01","Structure":null,"Wall_Material":null,"Condition":null,"Admin1_Region":"Vaisigano","Admin2_Region":"Vaisigano East","WindGust_kmph":111,"Fluvial_Inundation_m":0,"Coastal_Inundation_m":0}},
    {"type":"Feature","geometry":{"coordinates":[-172.6348431,-13.5187191],"type":"Point"},"properties":{"UseType":"Secondary","Asset":"School","Value":0,"Details":"Itu o Asau College, BL08","Structure":null,"Wall_Material":null,"Condition":null,"Admin1_Region":"Vaisigano","Admin2_Region":"Vaisigano East","WindGust_kmph":110,"Fluvial_Inundation_m":0,"Coastal_Inundation_m":0}},
    {"type":"Feature","geometry":{"coordinates":[-172.6347481,-13.5185442],"type":"Point"},"properties":{"UseType":"Secondary","Asset":"School","Value":0,"Details":"Itu o Asau College, BL07","Structure":null,"Wall_Material":null,"Condition":null,"Admin1_Region":"Vaisigano","Admin2_Region":"Vaisigano East","WindGust_kmph":110,"Fluvial_Inundation_m":0,"Coastal_Inundation_m":0}},
    {"type":"Feature","geometry":{"coordinates":[-172.4378926,-13.4695428],"type":"Point"},"properties":{"UseType":"Secondary","Asset":"School","Value":0,"Details":"Alofi o Taoa College, BL01","Structure":null,"Wall_Material":null,"Condition":null,"Admin1_Region":"Gaga'ifomauga","Admin2_Region":"Gagaifomauga II","WindGust_kmph":110,"Fluvial_Inundation_m":0,"Coastal_Inundation_m":0}},
    {"type":"Feature","geometry":{"coordinates":[-172.4372483,-13.4699756],"type":"Point"},"properties":{"UseType":"Secondary","Asset":"School","Value":0,"Details":"Alofi o Taoa College, BL08","Structure":null,"Wall_Material":null,"Condition":null,"Admin1_Region":"Gaga'ifomauga","Admin2_Region":"Gagaifomauga II","WindGust_kmph":106,"Fluvial_Inundation_m":0,"Coastal_Inundation_m":0}},
    {"type":"Feature","geometry":{"coordinates":[-172.4372118,-13.4698344],"type":"Point"},"properties":{"UseType":"Secondary","Asset":"School","Value":0,"Details":"Alofi o Taoa College, BL05","Structure":null,"Wall_Material":null,"Condition":null,"Admin1_Region":"Gaga'ifomauga","Admin2_Region":"Gagaifomauga II","WindGust_kmph":108,"Fluvial_Inundation_m":0,"Coastal_Inundation_m":0}},
    {"type":"Feature","geometry":{"coordinates":[-171.6934734,-14.0245812],"type":"Point"},"properties":{"UseType":"Secondary","Asset":"School","Value":0,"Details":"Falealili College, BL09","Structure":null,"Wall_Material":null,"Condition":null,"Admin1_Region":"Atua","Admin2_Region":"Falealili","WindGust_kmph":111,"Fluvial_Inundation_m":0,"Coastal_Inundation_m":0}},
    {"type":"Feature","geometry":{"coordinates":[-171.6935936,-14.0253832],"type":"Point"},"properties":{"UseType":"Secondary","Asset":"School","Value":0,"Details":"Falealili College, BL03","Structure":null,"Wall_Material":null,"Condition":null,"Admin1_Region":"Atua","Admin2_Region":"Falealili","WindGust_kmph":107,"Fluvial_Inundation_m":0,"Coastal_Inundation_m":0}},
    {"type":"Feature","geometry":{"coordinates":[-171.6936857,-14.0252052],"type":"Point"},"properties":{"UseType":"Secondary","Asset":"School","Value":0,"Details":"Falealili College, BL11","Structure":null,"Wall_Material":null,"Condition":null,"Admin1_Region":"Atua","Admin2_Region":"Falealili","WindGust_kmph":107,"Fluvial_Inundation_m":0,"Coastal_Inundation_m":0}},
    {"type":"Feature","geometry":{"coordinates":[-171.5243678,-14.036283],"type":"Point"},"properties":{"UseType":"Secondary","Asset":"School","Value":0,"Details":"Lepa/Lotofaga College, BL04","Structure":null,"Wall_Material":null,"Condition":null,"Admin1_Region":"Atua","Admin2_Region":"Lepa","WindGust_kmph":111,"Fluvial_Inundation_m":0,"Coastal_Inundation_m":0}},
    {"type":"Feature","geometry":{"coordinates":[-171.96153147,-13.82261003],"type":"Point"},"properties":{"UseType":"Community Hospital","Asset":"Health Facility","Value":0,"Details":"Leulumoega District Hospital, Other","Structure":null,"Wall_Material":null,"Condition":null,"Admin1_Region":"A'ana","Admin2_Region":"Aana Alofi II","WindGust_kmph":154,"Fluvial_Inundation_m":0,"Coastal_Inundation_m":0}},
    {"type":"Feature","geometry":{"coordinates":[-171.96146398,-13.82274384],"type":"Point"},"properties":{"UseType":"Community Hospital","Asset":"Health Facility","Value":0,"Details":"Leulumoega District Hospital, Nursing services  Medical Records Departments and Administrative","Structure":null,"Wall_Material":null,"Condition":null,"Admin1_Region":"A'ana","Admin2_Region":"Aana Alofi II","WindGust_kmph":152,"Fluvial_Inundation_m":0,"Coastal_Inundation_m":0}},
    {"type":"Feature","geometry":{"coordinates":[-171.96165405,-13.82281579],"type":"Point"},"properties":{"UseType":"Community Hospital","Asset":"Health Facility","Value":0,"Details":"Leulumoega District Hospital, Staff housing","Structure":null,"Wall_Material":null,"Condition":null,"Admin1_Region":"A'ana","Admin2_Region":"Aana Alofi II","WindGust_kmph":155,"Fluvial_Inundation_m":0,"Coastal_Inundation_m":0}},
    {"type":"Feature","geometry":{"coordinates":[-171.96152337,-13.82294194],"type":"Point"},"properties":{"UseType":"Community Hospital","Asset":"Health Facility","Value":0,"Details":"Leulumoega District Hospital, Staff housing","Structure":null,"Wall_Material":null,"Condition":null,"Admin1_Region":"A'ana","Admin2_Region":"Aana Alofi II","WindGust_kmph":141,"Fluvial_Inundation_m":0,"Coastal_Inundation_m":0}},
    {"type":"Feature","geometry":{"coordinates":[-171.60032861,-13.87396062],"type":"Point"},"properties":{"UseType":"Community Health Centre","Asset":"Health Facility","Value":0,"Details":"Lufilufi Health Center, Staff housing Ancillary services (Laundry, Kitchen, Maintenance Room, Storage)  Outpatient departments Family Medicine and Primary health care","Structure":null,"Wall_Material":null,"Condition":null,"Admin1_Region":"Atua","Admin2_Region":"Anoamaa East","WindGust_kmph":152,"Fluvial_Inundation_m":0,"Coastal_Inundation_m":0}},
    {"type":"Feature","geometry":{"coordinates":[-171.6070928,-13.8798731],"type":"Point"},"properties":{"UseType":"Secondary","Asset":"School","Value":0,"Details":"Anoamaa College, BL10","Structure":null,"Wall_Material":null,"Condition":null,"Admin1_Region":"Atua","Admin2_Region":"Anoamaa West","WindGust_kmph":106,"Fluvial_Inundation_m":0,"Coastal_Inundation_m":0}},
    {"type":"Feature","geometry":{"coordinates":[-171.6075982,-13.8797574],"type":"Point"},"properties":{"UseType":"Secondary","Asset":"School","Value":0,"Details":"Anoamaa College, BL09","Structure":null,"Wall_Material":null,"Condition":null,"Admin1_Region":"Atua","Admin2_Region":"Anoamaa West","WindGust_kmph":122,"Fluvial_Inundation_m":0,"Coastal_Inundation_m":0}},
    {"type":"Feature","geometry":{"coordinates":[-171.6077491,-13.8805341],"type":"Point"},"properties":{"UseType":"Secondary","Asset":"School","Value":0,"Details":"Anoamaa College, BL04","Structure":null,"Wall_Material":null,"Condition":null,"Admin1_Region":"Atua","Admin2_Region":"Anoamaa West","WindGust_kmph":126,"Fluvial_Inundation_m":0,"Coastal_Inundation_m":0}},
    {"type":"Feature","geometry":{"coordinates":[-171.6067678,-13.8805592],"type":"Point"},"properties":{"UseType":"Secondary","Asset":"School","Value":0,"Details":"Anoamaa College, BL07","Structure":null,"Wall_Material":null,"Condition":null,"Admin1_Region":"Atua","Admin2_Region":"Anoamaa West","WindGust_kmph":109,"Fluvial_Inundation_m":0,"Coastal_Inundation_m":0}},
    {"type":"Feature","geometry":{"coordinates":[-171.9576362,-13.9576275],"type":"Point"},"properties":{"UseType":"Secondary","Asset":"School","Value":0,"Details":"Lefaga College, BL07","Structure":null,"Wall_Material":null,"Condition":null,"Admin1_Region":"A'ana","Admin2_Region":"Lefaga & Faleseela","WindGust_kmph":136,"Fluvial_Inundation_m":0,"Coastal_Inundation_m":0}},
    {"type":"Feature","geometry":{"coordinates":[-171.9575703,-13.9576598],"type":"Point"},"properties":{"UseType":"Secondary","Asset":"School","Value":0,"Details":"Lefaga College, BL08","Structure":null,"Wall_Material":null,"Condition":null,"Admin1_Region":"A'ana","Admin2_Region":"Lefaga & Faleseela","WindGust_kmph":127,"Fluvial_Inundation_m":0,"Coastal_Inundation_m":0}},
    {"type":"Feature","geometry":{"coordinates":[-171.9580891,-13.9583148],"type":"Point"},"properties":{"UseType":"Secondary","Asset":"School","Value":0,"Details":"Lefaga College, BL03","Structure":null,"Wall_Material":null,"Condition":null,"Admin1_Region":"A'ana","Admin2_Region":"Lefaga & Faleseela","WindGust_kmph":144,"Fluvial_Inundation_m":0,"Coastal_Inundation_m":0}},
    {"type":"Feature","geometry":{"coordinates":[-171.9578486,-13.9575454],"type":"Point"},"properties":{"UseType":"Secondary","Asset":"School","Value":0,"Details":"Lefaga College, BL06","Structure":null,"Wall_Material":null,"Condition":null,"Admin1_Region":"A'ana","Admin2_Region":"Lefaga & Faleseela","WindGust_kmph":140,"Fluvial_Inundation_m":0,"Coastal_Inundation_m":0}},
    {"type":"Feature","geometry":{"coordinates":[-172.2099886,-13.7108059],"type":"Point"},"properties":{"UseType":"Secondary","Asset":"School","Value":0,"Details":"Mataaevave College, BL07","Structure":null,"Wall_Material":null,"Condition":null,"Admin1_Region":"Fa'asaleleage","Admin2_Region":"Faasaleleaga I","WindGust_kmph":106,"Fluvial_Inundation_m":0,"Coastal_Inundation_m":0}},
    {"type":"Feature","geometry":{"coordinates":[-172.2099063,-13.710728],"type":"Point"},"properties":{"UseType":"Secondary","Asset":"School","Value":0,"Details":"Mataaevave College, BL08","Structure":null,"Wall_Material":null,"Condition":null,"Admin1_Region":"Fa'asaleleage","Admin2_Region":"Faasaleleaga I","WindGust_kmph":106,"Fluvial_Inundation_m":0,"Coastal_Inundation_m":0}},
    {"type":"Feature","geometry":{"coordinates":[-172.2098699,-13.7102115],"type":"Point"},"properties":{"UseType":"Secondary","Asset":"School","Value":0,"Details":"Mataaevave College, BL04","Structure":null,"Wall_Material":null,"Condition":null,"Admin1_Region":"Fa'asaleleage","Admin2_Region":"Faasaleleaga I","WindGust_kmph":106,"Fluvial_Inundation_m":0,"Coastal_Inundation_m":0}},
    {"type":"Feature","geometry":{"coordinates":[-172.2098928,-13.7101666],"type":"Point"},"properties":{"UseType":"Secondary","Asset":"School","Value":0,"Details":"Mataaevave College, BL03","Structure":null,"Wall_Material":null,"Condition":null,"Admin1_Region":"Fa'asaleleage","Admin2_Region":"Faasaleleaga I","WindGust_kmph":106,"Fluvial_Inundation_m":0,"Coastal_Inundation_m":0}},
    {"type":"Feature","geometry":{"coordinates":[-172.436735,-13.4700156],"type":"Point"},"properties":{"UseType":"Secondary","Asset":"School","Value":0,"Details":"Alofi o Taoa College, BL10","Structure":null,"Wall_Material":null,"Condition":null,"Admin1_Region":"Gaga'ifomauga","Admin2_Region":"Gagaifomauga II","WindGust_kmph":109,"Fluvial_Inundation_m":0,"Coastal_Inundation_m":0}},
    {"type":"Feature","geometry":{"coordinates":[-172.4367452,-13.4699738],"type":"Point"},"properties":{"UseType":"Secondary","Asset":"School","Value":0,"Details":"Alofi o Taoa College, BL09","Structure":null,"Wall_Material":null,"Condition":null,"Admin1_Region":"Gaga'ifomauga","Admin2_Region":"Gagaifomauga II","WindGust_kmph":109,"Fluvial_Inundation_m":0,"Coastal_Inundation_m":0}},
    {"type":"Feature","geometry":{"coordinates":[-172.6334754,-13.5180738],"type":"Point"},"properties":{"UseType":"Secondary","Asset":"School","Value":0,"Details":"Itu o Asau College, BL03","Structure":null,"Wall_Material":null,"Condition":null,"Admin1_Region":"Vaisigano","Admin2_Region":"Vaisigano East","WindGust_kmph":116,"Fluvial_Inundation_m":0,"Coastal_Inundation_m":0}},
    {"type":"Feature","geometry":{"coordinates":[-172.4376735,-13.4695902],"type":"Point"},"properties":{"UseType":"Secondary","Asset":"School","Value":0,"Details":"Alofi o Taoa College, BL04","Structure":null,"Wall_Material":null,"Condition":null,"Admin1_Region":"Gaga'ifomauga","Admin2_Region":"Gagaifomauga II","WindGust_kmph":110,"Fluvial_Inundation_m":0,"Coastal_Inundation_m":0}},
    {"type":"Feature","geometry":{"coordinates":[-172.4377393,-13.4696041],"type":"Point"},"properties":{"UseType":"Secondary","Asset":"School","Value":0,"Details":"Alofi o Taoa College, BL03","Structure":null,"Wall_Material":null,"Condition":null,"Admin1_Region":"Gaga'ifomauga","Admin2_Region":"Gagaifomauga II","WindGust_kmph":110,"Fluvial_Inundation_m":0,"Coastal_Inundation_m":0}},
    {"type":"Feature","geometry":{"coordinates":[-172.6335406,-13.5182134],"type":"Point"},"properties":{"UseType":"Secondary","Asset":"School","Value":0,"Details":"Itu o Asau College, BL04","Structure":null,"Wall_Material":null,"Condition":null,"Admin1_Region":"Vaisigano","Admin2_Region":"Vaisigano East","WindGust_kmph":111,"Fluvial_Inundation_m":0,"Coastal_Inundation_m":0}},
    {"type":"Feature","geometry":{"coordinates":[-172.6335645,-13.518187],"type":"Point"},"properties":{"UseType":"Secondary","Asset":"School","Value":0,"Details":"Itu o Asau College, BL02","Structure":null,"Wall_Material":null,"Condition":null,"Admin1_Region":"Vaisigano","Admin2_Region":"Vaisigano East","WindGust_kmph":116,"Fluvial_Inundation_m":0,"Coastal_Inundation_m":0}},
    {"type":"Feature","geometry":{"coordinates":[-172.6345987,-13.5184015],"type":"Point"},"properties":{"UseType":"Secondary","Asset":"School","Value":0,"Details":"Itu o Asau College, BL06","Structure":null,"Wall_Material":null,"Condition":null,"Admin1_Region":"Vaisigano","Admin2_Region":"Vaisigano East","WindGust_kmph":110,"Fluvial_Inundation_m":0,"Coastal_Inundation_m":0}},
    {"type":"Feature","geometry":{"coordinates":[-172.6349374,-13.5187162],"type":"Point"},"properties":{"UseType":"Secondary","Asset":"School","Value":0,"Details":"Itu o Asau College, BL19","Structure":null,"Wall_Material":null,"Condition":null,"Admin1_Region":"Vaisigano","Admin2_Region":"Vaisigano East","WindGust_kmph":109,"Fluvial_Inundation_m":0,"Coastal_Inundation_m":0}},
    {"type":"Feature","geometry":{"coordinates":[-172.6348818,-13.5187007],"type":"Point"},"properties":{"UseType":"Secondary","Asset":"School","Value":0,"Details":"Itu o Asau College, BL20","Structure":null,"Wall_Material":null,"Condition":null,"Admin1_Region":"Vaisigano","Admin2_Region":"Vaisigano East","WindGust_kmph":109,"Fluvial_Inundation_m":0,"Coastal_Inundation_m":0}},
    {"type":"Feature","geometry":{"coordinates":[-172.6346109,-13.5188078],"type":"Point"},"properties":{"UseType":"Secondary","Asset":"School","Value":0,"Details":"Itu o Asau College, BL17","Structure":null,"Wall_Material":null,"Condition":null,"Admin1_Region":"Vaisigano","Admin2_Region":"Vaisigano East","WindGust_kmph":107,"Fluvial_Inundation_m":0,"Coastal_Inundation_m":0}},
    {"type":"Feature","geometry":{"coordinates":[-172.4378781,-13.4695491],"type":"Point"},"properties":{"UseType":"Secondary","Asset":"School","Value":0,"Details":"Alofi o Taoa College, BL02","Structure":null,"Wall_Material":null,"Condition":null,"Admin1_Region":"Gaga'ifomauga","Admin2_Region":"Gagaifomauga II","WindGust_kmph":110,"Fluvial_Inundation_m":0,"Coastal_Inundation_m":0}},
    {"type":"Feature","geometry":{"coordinates":[-172.4379258,-13.4697369],"type":"Point"},"properties":{"UseType":"Secondary","Asset":"School","Value":0,"Details":"Alofi o Taoa College, BL07","Structure":null,"Wall_Material":null,"Condition":null,"Admin1_Region":"Gaga'ifomauga","Admin2_Region":"Gagaifomauga II","WindGust_kmph":108,"Fluvial_Inundation_m":0,"Coastal_Inundation_m":0}},
    {"type":"Feature","geometry":{"coordinates":[-172.6346191,-13.518473],"type":"Point"},"properties":{"UseType":"Secondary","Asset":"School","Value":0,"Details":"Itu o Asau College, BL18","Structure":null,"Wall_Material":null,"Condition":null,"Admin1_Region":"Vaisigano","Admin2_Region":"Vaisigano East","WindGust_kmph":110,"Fluvial_Inundation_m":0,"Coastal_Inundation_m":0}},
    {"type":"Feature","geometry":{"coordinates":[-172.4369549,-13.4697447],"type":"Point"},"properties":{"UseType":"Secondary","Asset":"School","Value":0,"Details":"Alofi o Taoa College, BL06","Structure":null,"Wall_Material":null,"Condition":null,"Admin1_Region":"Gaga'ifomauga","Admin2_Region":"Gagaifomauga II","WindGust_kmph":119,"Fluvial_Inundation_m":0,"Coastal_Inundation_m":0}},
    {"type":"Feature","geometry":{"coordinates":[-172.4377815,-13.4691459],"type":"Point"},"properties":{"UseType":"Secondary","Asset":"School","Value":0,"Details":"Alofi o Taoa College, BL14","Structure":null,"Wall_Material":null,"Condition":null,"Admin1_Region":"Gaga'ifomauga","Admin2_Region":"Gagaifomauga II","WindGust_kmph":114,"Fluvial_Inundation_m":0,"Coastal_Inundation_m":0}},
    {"type":"Feature","geometry":{"coordinates":[-171.693804,-14.0252564],"type":"Point"},"properties":{"UseType":"Secondary","Asset":"School","Value":0,"Details":"Falealili College, BL01","Structure":null,"Wall_Material":null,"Condition":null,"Admin1_Region":"Atua","Admin2_Region":"Falealili","WindGust_kmph":111,"Fluvial_Inundation_m":0,"Coastal_Inundation_m":0}},
    {"type":"Feature","geometry":{"coordinates":[-171.6938723,-14.0251194],"type":"Point"},"properties":{"UseType":"Secondary","Asset":"School","Value":0,"Details":"Falealili College, BL02","Structure":null,"Wall_Material":null,"Condition":null,"Admin1_Region":"Atua","Admin2_Region":"Falealili","WindGust_kmph":111,"Fluvial_Inundation_m":0,"Coastal_Inundation_m":0}},
    {"type":"Feature","geometry":{"coordinates":[-171.6933521,-14.0246708],"type":"Point"},"properties":{"UseType":"Secondary","Asset":"School","Value":0,"Details":"Falealili College, BL08","Structure":null,"Wall_Material":null,"Condition":null,"Admin1_Region":"Atua","Admin2_Region":"Falealili","WindGust_kmph":111,"Fluvial_Inundation_m":0,"Coastal_Inundation_m":0}},
    {"type":"Feature","geometry":{"coordinates":[-171.524403,-14.0365693],"type":"Point"},"properties":{"UseType":"Secondary","Asset":"School","Value":0,"Details":"Lepa/Lotofaga College, BL07","Structure":null,"Wall_Material":null,"Condition":null,"Admin1_Region":"Atua","Admin2_Region":"Lepa","WindGust_kmph":111,"Fluvial_Inundation_m":0,"Coastal_Inundation_m":0}},
    {"type":"Feature","geometry":{"coordinates":[-172.0650733,-13.8667664],"type":"Point"},"properties":{"UseType":"Secondary","Asset":"School","Value":0,"Details":"Aana No 2 College, BL09","Structure":null,"Wall_Material":null,"Condition":null,"Admin1_Region":"Aiga-i-le-Tai","Admin2_Region":"Aiga i le Tai","WindGust_kmph":108,"Fluvial_Inundation_m":0,"Coastal_Inundation_m":0}},
    {"type":"Feature","geometry":{"coordinates":[-171.9581171,-13.9576501],"type":"Point"},"properties":{"UseType":"Secondary","Asset":"School","Value":0,"Details":"Lefaga College, BL05","Structure":null,"Wall_Material":null,"Condition":null,"Admin1_Region":"A'ana","Admin2_Region":"Lefaga & Faleseela","WindGust_kmph":144,"Fluvial_Inundation_m":0,"Coastal_Inundation_m":0}},
    {"type":"Feature","geometry":{"coordinates":[-172.2100572,-13.7107137],"type":"Point"},"properties":{"UseType":"Secondary","Asset":"School","Value":0,"Details":"Mataaevave College, BL05","Structure":null,"Wall_Material":null,"Condition":null,"Admin1_Region":"Fa'asaleleage","Admin2_Region":"Faasaleleaga I","WindGust_kmph":106,"Fluvial_Inundation_m":0,"Coastal_Inundation_m":0}},
    {"type":"Feature","geometry":{"coordinates":[-172.6347903,-13.5187379],"type":"Point"},"properties":{"UseType":"Secondary","Asset":"School","Value":0,"Details":"Itu o Asau College, BL09","Structure":null,"Wall_Material":null,"Condition":null,"Admin1_Region":"Vaisigano","Admin2_Region":"Vaisigano East","WindGust_kmph":110,"Fluvial_Inundation_m":0,"Coastal_Inundation_m":0}},
    {"type":"Feature","geometry":{"coordinates":[-171.6863977,-13.86665002],"type":"Point"},"properties":{"UseType":"Primary","Asset":"School","Value":0,"Details":"Luatuanuu Primary, 1","Structure":null,"Wall_Material":null,"Condition":null,"Admin1_Region":"Atua","Admin2_Region":"Anoamaa West","WindGust_kmph":111,"Fluvial_Inundation_m":0,"Coastal_Inundation_m":0}},
    {"type":"Feature","geometry":{"coordinates":[-171.6413423,-13.87580954],"type":"Point"},"properties":{"UseType":"Primary","Asset":"School","Value":0,"Details":"Solosolo Primary, 4","Structure":null,"Wall_Material":null,"Condition":null,"Admin1_Region":"Atua","Admin2_Region":"Anoamaa West","WindGust_kmph":125,"Fluvial_Inundation_m":0,"Coastal_Inundation_m":0}},
    {"type":"Feature","geometry":{"coordinates":[-171.6413683,-13.87569167],"type":"Point"},"properties":{"UseType":"Primary","Asset":"School","Value":0,"Details":"Solosolo Primary, 2","Structure":null,"Wall_Material":null,"Condition":null,"Admin1_Region":"Atua","Admin2_Region":"Anoamaa West","WindGust_kmph":125,"Fluvial_Inundation_m":0,"Coastal_Inundation_m":0}},
    {"type":"Feature","geometry":{"coordinates":[-171.641402,-13.87596673],"type":"Point"},"properties":{"UseType":"Primary","Asset":"School","Value":0,"Details":"Solosolo Primary, 1","Structure":null,"Wall_Material":null,"Condition":null,"Admin1_Region":"Atua","Admin2_Region":"Anoamaa West","WindGust_kmph":125,"Fluvial_Inundation_m":0,"Coastal_Inundation_m":0}},
    {"type":"Feature","geometry":{"coordinates":[-171.641279,-13.87570493],"type":"Point"},"properties":{"UseType":"Primary","Asset":"School","Value":0,"Details":"Solosolo Primary, 3","Structure":null,"Wall_Material":null,"Condition":null,"Admin1_Region":"Atua","Admin2_Region":"Anoamaa West","WindGust_kmph":125,"Fluvial_Inundation_m":0,"Coastal_Inundation_m":0}},
    {"type":"Feature","geometry":{"coordinates":[-171.9773968,-13.82915367],"type":"Point"},"properties":{"UseType":"Primary","Asset":"School","Value":0,"Details":"Vailu'utai Primary, 2","Structure":null,"Wall_Material":null,"Condition":null,"Admin1_Region":"A'ana","Admin2_Region":"Aana Alofi III","WindGust_kmph":127,"Fluvial_Inundation_m":0,"Coastal_Inundation_m":0}},
    {"type":"Feature","geometry":{"coordinates":[-171.9775855,-13.82844618],"type":"Point"},"properties":{"UseType":"Primary","Asset":"School","Value":0,"Details":"Vailu'utai Primary, 1","Structure":null,"Wall_Material":null,"Condition":null,"Admin1_Region":"A'ana","Admin2_Region":"Aana Alofi III","WindGust_kmph":136,"Fluvial_Inundation_m":0,"Coastal_Inundation_m":0}},
    {"type":"Feature","geometry":{"coordinates":[-171.9692526,-13.82843921],"type":"Point"},"properties":{"UseType":"Primary","Asset":"School","Value":0,"Details":"Fasito'otai Primary, 1","Structure":null,"Wall_Material":null,"Condition":null,"Admin1_Region":"A'ana","Admin2_Region":"Aana Alofi III","WindGust_kmph":154,"Fluvial_Inundation_m":0,"Coastal_Inundation_m":0}},
    {"type":"Feature","geometry":{"coordinates":[-171.6073817,-13.8791035],"type":"Point"},"properties":{"UseType":"Primary","Asset":"School","Value":0,"Details":"Saoluafata Primary, 1","Structure":null,"Wall_Material":null,"Condition":null,"Admin1_Region":"Atua","Admin2_Region":"Anoamaa West","WindGust_kmph":132,"Fluvial_Inundation_m":0,"Coastal_Inundation_m":0}},
    {"type":"Feature","geometry":{"coordinates":[-171.9687544,-13.82848764],"type":"Point"},"properties":{"UseType":"Primary","Asset":"School","Value":0,"Details":"Fasito'otai Primary, 2","Structure":null,"Wall_Material":null,"Condition":null,"Admin1_Region":"A'ana","Admin2_Region":"Aana Alofi III","WindGust_kmph":138,"Fluvial_Inundation_m":0,"Coastal_Inundation_m":0}},
    {"type":"Feature","geometry":{"coordinates":[-171.6073167,-13.87908333],"type":"Point"},"properties":{"UseType":"Primary","Asset":"School","Value":0,"Details":"Saoluafata Primary, 2","Structure":null,"Wall_Material":null,"Condition":null,"Admin1_Region":"Atua","Admin2_Region":"Anoamaa West","WindGust_kmph":128,"Fluvial_Inundation_m":0,"Coastal_Inundation_m":0}},
    {"type":"Feature","geometry":{"coordinates":[-171.9686135,-13.82857023],"type":"Point"},"properties":{"UseType":"Primary","Asset":"School","Value":0,"Details":"Fasito'otai Primary, 3","Structure":null,"Wall_Material":null,"Condition":null,"Admin1_Region":"A'ana","Admin2_Region":"Aana Alofi III","WindGust_kmph":128,"Fluvial_Inundation_m":0,"Coastal_Inundation_m":0}},
    {"type":"Feature","geometry":{"coordinates":[-171.592703,-13.874839],"type":"Point"},"properties":{"UseType":"Primary","Asset":"School","Value":0,"Details":"Faleapuna Primary, 2","Structure":null,"Wall_Material":null,"Condition":null,"Admin1_Region":"Atua","Admin2_Region":"Vaa o Fonoti","WindGust_kmph":124,"Fluvial_Inundation_m":0,"Coastal_Inundation_m":0}},
    {"type":"Feature","geometry":{"coordinates":[-171.592703,-13.874839],"type":"Point"},"properties":{"UseType":"Primary","Asset":"School","Value":0,"Details":"Faleapuna Primary, 1","Structure":null,"Wall_Material":null,"Condition":null,"Admin1_Region":"Atua","Admin2_Region":"Vaa o Fonoti","WindGust_kmph":124,"Fluvial_Inundation_m":0,"Coastal_Inundation_m":0}},
    {"type":"Feature","geometry":{"coordinates":[-171.958595,-13.82125633],"type":"Point"},"properties":{"UseType":"Primary","Asset":"School","Value":0,"Details":"Nofoalii Primary, 1","Structure":null,"Wall_Material":null,"Condition":null,"Admin1_Region":"A'ana","Admin2_Region":"Aana Alofi II","WindGust_kmph":136,"Fluvial_Inundation_m":0,"Coastal_Inundation_m":0}},
    {"type":"Feature","geometry":{"coordinates":[-172.0574257,-13.85895311],"type":"Point"},"properties":{"UseType":"Primary","Asset":"School","Value":0,"Details":"Satuimalufilufi Primary, 1","Structure":null,"Wall_Material":null,"Condition":null,"Admin1_Region":"A'ana","Admin2_Region":"Aana Alofi III","WindGust_kmph":108,"Fluvial_Inundation_m":0,"Coastal_Inundation_m":0}},
    {"type":"Feature","geometry":{"coordinates":[-172.0649523,-13.86163092],"type":"Point"},"properties":{"UseType":"Primary","Asset":"School","Value":0,"Details":"Apolima-uta Primary, 1","Structure":null,"Wall_Material":null,"Condition":null,"Admin1_Region":"A'ana","Admin2_Region":"Aiga i le Tai","WindGust_kmph":151,"Fluvial_Inundation_m":0,"Coastal_Inundation_m":0}},
    {"type":"Feature","geometry":{"coordinates":[-172.0649742,-13.86145601],"type":"Point"},"properties":{"UseType":"Primary","Asset":"School","Value":0,"Details":"Apolima-uta Primary, 2","Structure":null,"Wall_Material":null,"Condition":null,"Admin1_Region":"A'ana","Admin2_Region":"Aiga i le Tai","WindGust_kmph":157,"Fluvial_Inundation_m":0,"Coastal_Inundation_m":0}},
    {"type":"Feature","geometry":{"coordinates":[-172.057681,-13.8589675],"type":"Point"},"properties":{"UseType":"Primary","Asset":"School","Value":0,"Details":"Satuimalufilufi Primary, 2","Structure":null,"Wall_Material":null,"Condition":null,"Admin1_Region":"A'ana","Admin2_Region":"Aana Alofi III","WindGust_kmph":107,"Fluvial_Inundation_m":0,"Coastal_Inundation_m":0}},
    {"type":"Feature","geometry":{"coordinates":[-171.9584561,-13.82122657],"type":"Point"},"properties":{"UseType":"Primary","Asset":"School","Value":0,"Details":"Nofoalii Primary, 2","Structure":null,"Wall_Material":null,"Condition":null,"Admin1_Region":"A'ana","Admin2_Region":"Aana Alofi II","WindGust_kmph":144,"Fluvial_Inundation_m":0,"Coastal_Inundation_m":0}},
    {"type":"Feature","geometry":{"coordinates":[-172.0577156,-13.85917346],"type":"Point"},"properties":{"UseType":"Primary","Asset":"School","Value":0,"Details":"Satuimalufilufi Primary, 3","Structure":null,"Wall_Material":null,"Condition":null,"Admin1_Region":"A'ana","Admin2_Region":"Aana Alofi III","WindGust_kmph":108,"Fluvial_Inundation_m":0,"Coastal_Inundation_m":0}},
    {"type":"Feature","geometry":{"coordinates":[-172.0572827,-13.85873757],"type":"Point"},"properties":{"UseType":"Primary","Asset":"School","Value":0,"Details":"Satuimalufilufi Primary, 5","Structure":null,"Wall_Material":null,"Condition":null,"Admin1_Region":"A'ana","Admin2_Region":"Aana Alofi III","WindGust_kmph":114,"Fluvial_Inundation_m":0,"Coastal_Inundation_m":0}},
    {"type":"Feature","geometry":{"coordinates":[-172.0575493,-13.85883894],"type":"Point"},"properties":{"UseType":"Primary","Asset":"School","Value":0,"Details":"Satuimalufilufi Primary, 4","Structure":null,"Wall_Material":null,"Condition":null,"Admin1_Region":"A'ana","Admin2_Region":"Aana Alofi III","WindGust_kmph":108,"Fluvial_Inundation_m":0,"Coastal_Inundation_m":0}},
    {"type":"Feature","geometry":{"coordinates":[-171.9407289,-13.81174638],"type":"Point"},"properties":{"UseType":"Primary","Asset":"School","Value":0,"Details":"Fasito'outa Primary, 2","Structure":null,"Wall_Material":null,"Condition":null,"Admin1_Region":"A'ana","Admin2_Region":"Aana Alofi I","WindGust_kmph":123,"Fluvial_Inundation_m":0,"Coastal_Inundation_m":0}},
    {"type":"Feature","geometry":{"coordinates":[-171.9404715,-13.81177049],"type":"Point"},"properties":{"UseType":"Primary","Asset":"School","Value":0,"Details":"Fasito'outa Primary, 1","Structure":null,"Wall_Material":null,"Condition":null,"Admin1_Region":"A'ana","Admin2_Region":"Aana Alofi I","WindGust_kmph":122,"Fluvial_Inundation_m":0,"Coastal_Inundation_m":0}},
    {"type":"Feature","geometry":{"coordinates":[-171.9403766,-13.81150428],"type":"Point"},"properties":{"UseType":"Primary","Asset":"School","Value":0,"Details":"Fasito'outa Primary, 3","Structure":null,"Wall_Material":null,"Condition":null,"Admin1_Region":"A'ana","Admin2_Region":"Aana Alofi I","WindGust_kmph":122,"Fluvial_Inundation_m":0,"Coastal_Inundation_m":0}},
    {"type":"Feature","geometry":{"coordinates":[-172.0399402,-13.84374809],"type":"Point"},"properties":{"UseType":"Primary","Asset":"School","Value":0,"Details":"Mulifanua Primary, 2","Structure":null,"Wall_Material":null,"Condition":null,"Admin1_Region":"Aiga-i-le-Tai","Admin2_Region":"Aiga i le Tai","WindGust_kmph":108,"Fluvial_Inundation_m":0,"Coastal_Inundation_m":0}},
    {"type":"Feature","geometry":{"coordinates":[-171.9205352,-13.80786022],"type":"Point"},"properties":{"UseType":"Primary","Asset":"School","Value":0,"Details":"Faleasi'u Primary, 4","Structure":null,"Wall_Material":null,"Condition":null,"Admin1_Region":"A'ana","Admin2_Region":"Aana Alofi I","WindGust_kmph":108,"Fluvial_Inundation_m":0,"Coastal_Inundation_m":0}},
    {"type":"Feature","geometry":{"coordinates":[-171.9205346,-13.80777044],"type":"Point"},"properties":{"UseType":"Primary","Asset":"School","Value":0,"Details":"Faleasi'u Primary, 5","Structure":null,"Wall_Material":null,"Condition":null,"Admin1_Region":"A'ana","Admin2_Region":"Aana Alofi I","WindGust_kmph":108,"Fluvial_Inundation_m":0,"Coastal_Inundation_m":0}},
    {"type":"Feature","geometry":{"coordinates":[-171.9201586,-13.80782177],"type":"Point"},"properties":{"UseType":"Primary","Asset":"School","Value":0,"Details":"Faleasi'u Primary, 6","Structure":null,"Wall_Material":null,"Condition":null,"Admin1_Region":"A'ana","Admin2_Region":"Aana Alofi I","WindGust_kmph":107,"Fluvial_Inundation_m":0,"Coastal_Inundation_m":0}},
    {"type":"Feature","geometry":{"coordinates":[-171.9080756,-13.79905737],"type":"Point"},"properties":{"UseType":"Primary","Asset":"School","Value":0,"Details":"Utuali'i Primary, 1","Structure":null,"Wall_Material":null,"Condition":null,"Admin1_Region":"Tuamasaga","Admin2_Region":"Sagaga le Falefa","WindGust_kmph":147,"Fluvial_Inundation_m":0,"Coastal_Inundation_m":0}},
    {"type":"Feature","geometry":{"coordinates":[-172.0401126,-13.84380638],"type":"Point"},"properties":{"UseType":"Primary","Asset":"School","Value":0,"Details":"Mulifanua Primary, 1","Structure":null,"Wall_Material":null,"Condition":null,"Admin1_Region":"Aiga-i-le-Tai","Admin2_Region":"Aiga i le Tai","WindGust_kmph":108,"Fluvial_Inundation_m":0,"Coastal_Inundation_m":0}},
    {"type":"Feature","geometry":{"coordinates":[-172.0401298,-13.84345825],"type":"Point"},"properties":{"UseType":"Primary","Asset":"School","Value":0,"Details":"Mulifanua Primary, 3","Structure":null,"Wall_Material":null,"Condition":null,"Admin1_Region":"Aiga-i-le-Tai","Admin2_Region":"Aiga i le Tai","WindGust_kmph":115,"Fluvial_Inundation_m":0,"Coastal_Inundation_m":0}},
    {"type":"Feature","geometry":{"coordinates":[-172.040031,-13.84328682],"type":"Point"},"properties":{"UseType":"Primary","Asset":"School","Value":0,"Details":"Mulifanua Primary, 4","Structure":null,"Wall_Material":null,"Condition":null,"Admin1_Region":"Aiga-i-le-Tai","Admin2_Region":"Aiga i le Tai","WindGust_kmph":115,"Fluvial_Inundation_m":0,"Coastal_Inundation_m":0}},
    {"type":"Feature","geometry":{"coordinates":[-171.9082189,-13.79904416],"type":"Point"},"properties":{"UseType":"Primary","Asset":"School","Value":0,"Details":"Utuali'i Primary, 2","Structure":null,"Wall_Material":null,"Condition":null,"Admin1_Region":"Tuamasaga","Admin2_Region":"Sagaga le Falefa","WindGust_kmph":151,"Fluvial_Inundation_m":0,"Coastal_Inundation_m":0}},
    {"type":"Feature","geometry":{"coordinates":[-171.8911026,-13.80450903],"type":"Point"},"properties":{"UseType":"Primary","Asset":"School","Value":0,"Details":"Sale'imoa Primary, 1","Structure":null,"Wall_Material":null,"Condition":null,"Admin1_Region":"Tuamasaga","Admin2_Region":"Sagaga le Falefa","WindGust_kmph":108,"Fluvial_Inundation_m":0,"Coastal_Inundation_m":0}},
    {"type":"Feature","geometry":{"coordinates":[-171.427417,-14.00509162],"type":"Point"},"properties":{"UseType":"Primary","Asset":"School","Value":0,"Details":"Saleaumua Primary, 4","Structure":null,"Wall_Material":null,"Condition":null,"Admin1_Region":"Atua","Admin2_Region":"Aleipata itupa i Lalo","WindGust_kmph":107,"Fluvial_Inundation_m":0,"Coastal_Inundation_m":0}},
    {"type":"Feature","geometry":{"coordinates":[-171.6795981,-14.03187461],"type":"Point"},"properties":{"UseType":"Primary","Asset":"School","Value":0,"Details":"Vaovai Primary, 1","Structure":null,"Wall_Material":null,"Condition":null,"Admin1_Region":"Atua","Admin2_Region":"Falealili","WindGust_kmph":108,"Fluvial_Inundation_m":0,"Coastal_Inundation_m":0}},
    {"type":"Feature","geometry":{"coordinates":[-171.6799063,-14.03213054],"type":"Point"},"properties":{"UseType":"Primary","Asset":"School","Value":0,"Details":"Vaovai Primary, 6","Structure":null,"Wall_Material":null,"Condition":null,"Admin1_Region":"Atua","Admin2_Region":"Falealili","WindGust_kmph":109,"Fluvial_Inundation_m":0,"Coastal_Inundation_m":0}},
    {"type":"Feature","geometry":{"coordinates":[-171.6334391,-14.03580666],"type":"Point"},"properties":{"UseType":"Primary","Asset":"School","Value":0,"Details":"Satalo Primary, 2","Structure":null,"Wall_Material":null,"Condition":null,"Admin1_Region":"Atua","Admin2_Region":"Falealili","WindGust_kmph":112,"Fluvial_Inundation_m":0,"Coastal_Inundation_m":0}},
    {"type":"Feature","geometry":{"coordinates":[-171.4986455,-14.02977637],"type":"Point"},"properties":{"UseType":"Primary","Asset":"School","Value":0,"Details":"Saleapaga Primary, 1","Structure":null,"Wall_Material":null,"Condition":null,"Admin1_Region":"Atua","Admin2_Region":"Lepa","WindGust_kmph":107,"Fluvial_Inundation_m":0,"Coastal_Inundation_m":0}},
    {"type":"Feature","geometry":{"coordinates":[-171.6207112,-14.03534841],"type":"Point"},"properties":{"UseType":"Primary","Asset":"School","Value":0,"Details":"Salesatele Primary, 1","Structure":null,"Wall_Material":null,"Condition":null,"Admin1_Region":"Atua","Admin2_Region":"Falealili","WindGust_kmph":110,"Fluvial_Inundation_m":0,"Coastal_Inundation_m":0}},
    {"type":"Feature","geometry":{"coordinates":[-171.5408872,-14.04139686],"type":"Point"},"properties":{"UseType":"Primary","Asset":"School","Value":0,"Details":"Aufaga Primary, 1","Structure":null,"Wall_Material":null,"Condition":null,"Admin1_Region":"Atua","Admin2_Region":"Lepa","WindGust_kmph":106,"Fluvial_Inundation_m":0,"Coastal_Inundation_m":0}},
    {"type":"Feature","geometry":{"coordinates":[-171.6204453,-14.03489936],"type":"Point"},"properties":{"UseType":"Primary","Asset":"School","Value":0,"Details":"Salesatele Primary, 2","Structure":null,"Wall_Material":null,"Condition":null,"Admin1_Region":"Atua","Admin2_Region":"Falealili","WindGust_kmph":107,"Fluvial_Inundation_m":0,"Coastal_Inundation_m":0}},
    {"type":"Feature","geometry":{"coordinates":[-171.5831571,-14.03853309],"type":"Point"},"properties":{"UseType":"Primary","Asset":"School","Value":0,"Details":"Matatufu Primary, 1","Structure":null,"Wall_Material":null,"Condition":null,"Admin1_Region":"Atua","Admin2_Region":"Lotofaga","WindGust_kmph":111,"Fluvial_Inundation_m":0,"Coastal_Inundation_m":0}},
    {"type":"Feature","geometry":{"coordinates":[-171.582916,-14.03829221],"type":"Point"},"properties":{"UseType":"Primary","Asset":"School","Value":0,"Details":"Matatufu Primary, 2","Structure":null,"Wall_Material":null,"Condition":null,"Admin1_Region":"Atua","Admin2_Region":"Lotofaga","WindGust_kmph":107,"Fluvial_Inundation_m":0,"Coastal_Inundation_m":0}},
    {"type":"Feature","geometry":{"coordinates":[-171.583073,-14.0387649],"type":"Point"},"properties":{"UseType":"Primary","Asset":"School","Value":0,"Details":"Matatufu Primary, 3","Structure":null,"Wall_Material":null,"Condition":null,"Admin1_Region":"Atua","Admin2_Region":"Lotofaga","WindGust_kmph":111,"Fluvial_Inundation_m":0,"Coastal_Inundation_m":0}},
    {"type":"Feature","geometry":{"coordinates":[-171.5126605,-13.95262222],"type":"Point"},"properties":{"UseType":"Primary","Asset":"School","Value":0,"Details":"Uafato Primary, 1","Structure":null,"Wall_Material":null,"Condition":null,"Admin1_Region":"Va'a-o-Fonoti","Admin2_Region":"Vaa o Fonoti","WindGust_kmph":134,"Fluvial_Inundation_m":0,"Coastal_Inundation_m":0}},
    {"type":"Feature","geometry":{"coordinates":[-171.5128791,-13.952587],"type":"Point"},"properties":{"UseType":"Primary","Asset":"School","Value":0,"Details":"Uafato Primary, 2","Structure":null,"Wall_Material":null,"Condition":null,"Admin1_Region":"Va'a-o-Fonoti","Admin2_Region":"Vaa o Fonoti","WindGust_kmph":134,"Fluvial_Inundation_m":0,"Coastal_Inundation_m":0}},
    {"type":"Feature","geometry":{"coordinates":[-171.5127303,-13.95269784],"type":"Point"},"properties":{"UseType":"Primary","Asset":"School","Value":0,"Details":"Uafato Primary, 4","Structure":null,"Wall_Material":null,"Condition":null,"Admin1_Region":"Va'a-o-Fonoti","Admin2_Region":"Vaa o Fonoti","WindGust_kmph":143,"Fluvial_Inundation_m":0,"Coastal_Inundation_m":0}},
    {"type":"Feature","geometry":{"coordinates":[-171.5128016,-13.95268701],"type":"Point"},"properties":{"UseType":"Primary","Asset":"School","Value":0,"Details":"Uafato Primary, 3","Structure":null,"Wall_Material":null,"Condition":null,"Admin1_Region":"Va'a-o-Fonoti","Admin2_Region":"Vaa o Fonoti","WindGust_kmph":143,"Fluvial_Inundation_m":0,"Coastal_Inundation_m":0}},
    {"type":"Feature","geometry":{"coordinates":[-171.8556553,-13.79958143],"type":"Point"},"properties":{"UseType":"Primary","Asset":"School","Value":0,"Details":"Afega Primary, 1","Structure":null,"Wall_Material":null,"Condition":null,"Admin1_Region":"Tuamasaga","Admin2_Region":"Sagaga le Usoga","WindGust_kmph":124,"Fluvial_Inundation_m":0,"Coastal_Inundation_m":0}},
    {"type":"Feature","geometry":{"coordinates":[-171.8556782,-13.7995206],"type":"Point"},"properties":{"UseType":"Primary","Asset":"School","Value":0,"Details":"Afega Primary, 2","Structure":null,"Wall_Material":null,"Condition":null,"Admin1_Region":"Tuamasaga","Admin2_Region":"Sagaga le Usoga","WindGust_kmph":124,"Fluvial_Inundation_m":0,"Coastal_Inundation_m":0}},
    {"type":"Feature","geometry":{"coordinates":[-171.8557287,-13.79917389],"type":"Point"},"properties":{"UseType":"Primary","Asset":"School","Value":0,"Details":"Afega Primary, 3","Structure":null,"Wall_Material":null,"Condition":null,"Admin1_Region":"Tuamasaga","Admin2_Region":"Sagaga le Usoga","WindGust_kmph":134,"Fluvial_Inundation_m":0,"Coastal_Inundation_m":0}},
    {"type":"Feature","geometry":{"coordinates":[-171.8557372,-13.79897971],"type":"Point"},"properties":{"UseType":"Primary","Asset":"School","Value":0,"Details":"Afega Primary, 4","Structure":null,"Wall_Material":null,"Condition":null,"Admin1_Region":"Tuamasaga","Admin2_Region":"Sagaga le Usoga","WindGust_kmph":142,"Fluvial_Inundation_m":0,"Coastal_Inundation_m":0}},
    {"type":"Feature","geometry":{"coordinates":[-171.8555198,-13.79921827],"type":"Point"},"properties":{"UseType":"Primary","Asset":"School","Value":0,"Details":"Afega Primary, 5","Structure":null,"Wall_Material":null,"Condition":null,"Admin1_Region":"Tuamasaga","Admin2_Region":"Sagaga le Usoga","WindGust_kmph":133,"Fluvial_Inundation_m":0,"Coastal_Inundation_m":0}},
    {"type":"Feature","geometry":{"coordinates":[-171.8443218,-13.79962042],"type":"Point"},"properties":{"UseType":"Primary","Asset":"School","Value":0,"Details":"Malie Primary, 1","Structure":null,"Wall_Material":null,"Condition":null,"Admin1_Region":"Tuamasaga","Admin2_Region":"Sagaga le Usoga","WindGust_kmph":122,"Fluvial_Inundation_m":0,"Coastal_Inundation_m":0}},
    {"type":"Feature","geometry":{"coordinates":[-171.8442655,-13.79980009],"type":"Point"},"properties":{"UseType":"Primary","Asset":"School","Value":0,"Details":"Malie Primary, 2","Structure":null,"Wall_Material":null,"Condition":null,"Admin1_Region":"Tuamasaga","Admin2_Region":"Sagaga le Usoga","WindGust_kmph":121,"Fluvial_Inundation_m":0,"Coastal_Inundation_m":0}},
    {"type":"Feature","geometry":{"coordinates":[-171.5410576,-13.9422111],"type":"Point"},"properties":{"UseType":"Primary","Asset":"School","Value":0,"Details":"Lona Primary, 2","Structure":null,"Wall_Material":null,"Condition":null,"Admin1_Region":"Va'a-o-Fonoti","Admin2_Region":"Vaa o Fonoti","WindGust_kmph":127,"Fluvial_Inundation_m":0,"Coastal_Inundation_m":0}},
    {"type":"Feature","geometry":{"coordinates":[-171.5412841,-13.94214954],"type":"Point"},"properties":{"UseType":"Primary","Asset":"School","Value":0,"Details":"Lona Primary, 3","Structure":null,"Wall_Material":null,"Condition":null,"Admin1_Region":"Va'a-o-Fonoti","Admin2_Region":"Vaa o Fonoti","WindGust_kmph":127,"Fluvial_Inundation_m":0,"Coastal_Inundation_m":0}},
    {"type":"Feature","geometry":{"coordinates":[-171.9166267,-13.97308833],"type":"Point"},"properties":{"UseType":"Primary","Asset":"School","Value":0,"Details":"Salamumu Primary, 2","Structure":null,"Wall_Material":null,"Condition":null,"Admin1_Region":"Gaga'emauga","Admin2_Region":"Gagaemauga II (PART)","WindGust_kmph":108,"Fluvial_Inundation_m":0,"Coastal_Inundation_m":0}},
    {"type":"Feature","geometry":{"coordinates":[-171.9166835,-13.97270576],"type":"Point"},"properties":{"UseType":"Primary","Asset":"School","Value":0,"Details":"Salamumu Primary, 5","Structure":null,"Wall_Material":null,"Condition":null,"Admin1_Region":"Gaga'emauga","Admin2_Region":"Gagaemauga II (PART)","WindGust_kmph":111,"Fluvial_Inundation_m":0,"Coastal_Inundation_m":0}},
    {"type":"Feature","geometry":{"coordinates":[-171.949614,-13.96844663],"type":"Point"},"properties":{"UseType":"Primary","Asset":"School","Value":0,"Details":"Matautu Primary, 2","Structure":null,"Wall_Material":null,"Condition":null,"Admin1_Region":"A'ana","Admin2_Region":"Lefaga & Faleseela","WindGust_kmph":111,"Fluvial_Inundation_m":0,"Coastal_Inundation_m":0}},
    {"type":"Feature","geometry":{"coordinates":[-171.8444839,-13.79960342],"type":"Point"},"properties":{"UseType":"Primary","Asset":"School","Value":0,"Details":"Malie Primary, 4","Structure":null,"Wall_Material":null,"Condition":null,"Admin1_Region":"Tuamasaga","Admin2_Region":"Sagaga le Usoga","WindGust_kmph":122,"Fluvial_Inundation_m":0,"Coastal_Inundation_m":0}},
    {"type":"Feature","geometry":{"coordinates":[-171.5409353,-13.9420399],"type":"Point"},"properties":{"UseType":"Primary","Asset":"School","Value":0,"Details":"Lona Primary, 1","Structure":null,"Wall_Material":null,"Condition":null,"Admin1_Region":"Va'a-o-Fonoti","Admin2_Region":"Vaa o Fonoti","WindGust_kmph":136,"Fluvial_Inundation_m":0,"Coastal_Inundation_m":0}},
    {"type":"Feature","geometry":{"coordinates":[-171.8445916,-13.7998248],"type":"Point"},"properties":{"UseType":"Primary","Asset":"School","Value":0,"Details":"Malie Primary, 3","Structure":null,"Wall_Material":null,"Condition":null,"Admin1_Region":"Tuamasaga","Admin2_Region":"Sagaga le Usoga","WindGust_kmph":122,"Fluvial_Inundation_m":0,"Coastal_Inundation_m":0}},
    {"type":"Feature","geometry":{"coordinates":[-171.957715,-13.95521333],"type":"Point"},"properties":{"UseType":"Primary","Asset":"School","Value":0,"Details":"Savaia Primary, 1","Structure":null,"Wall_Material":null,"Condition":null,"Admin1_Region":"A'ana","Admin2_Region":"Lefaga & Faleseela","WindGust_kmph":115,"Fluvial_Inundation_m":0,"Coastal_Inundation_m":0}},
    {"type":"Feature","geometry":{"coordinates":[-171.9576788,-13.9555799],"type":"Point"},"properties":{"UseType":"Primary","Asset":"School","Value":0,"Details":"Savaia Primary, 2","Structure":null,"Wall_Material":null,"Condition":null,"Admin1_Region":"A'ana","Admin2_Region":"Lefaga & Faleseela","WindGust_kmph":118,"Fluvial_Inundation_m":0,"Coastal_Inundation_m":0}},
    {"type":"Feature","geometry":{"coordinates":[-171.9580163,-13.95512115],"type":"Point"},"properties":{"UseType":"Primary","Asset":"School","Value":0,"Details":"Savaia Primary, 3","Structure":null,"Wall_Material":null,"Condition":null,"Admin1_Region":"A'ana","Admin2_Region":"Lefaga & Faleseela","WindGust_kmph":119,"Fluvial_Inundation_m":0,"Coastal_Inundation_m":0}},
    {"type":"Feature","geometry":{"coordinates":[-171.962152,-13.9408486],"type":"Point"},"properties":{"UseType":"Primary","Asset":"School","Value":0,"Details":"Safa'ato'a Primary, 2","Structure":null,"Wall_Material":null,"Condition":null,"Admin1_Region":"A'ana","Admin2_Region":"Lefaga & Faleseela","WindGust_kmph":110,"Fluvial_Inundation_m":0,"Coastal_Inundation_m":0}},
    {"type":"Feature","geometry":{"coordinates":[-171.9627509,-13.94099924],"type":"Point"},"properties":{"UseType":"Primary","Asset":"School","Value":0,"Details":"Safa'ato'a Primary, 4","Structure":null,"Wall_Material":null,"Condition":null,"Admin1_Region":"A'ana","Admin2_Region":"Lefaga & Faleseela","WindGust_kmph":110,"Fluvial_Inundation_m":0,"Coastal_Inundation_m":0}},
    {"type":"Feature","geometry":{"coordinates":[-171.6011821,-13.87695924],"type":"Point"},"properties":{"UseType":"Primary","Asset":"School","Value":0,"Details":"Lufilufi Primary, 3","Structure":null,"Wall_Material":null,"Condition":null,"Admin1_Region":"Atua","Admin2_Region":"Anoamaa East","WindGust_kmph":107,"Fluvial_Inundation_m":0,"Coastal_Inundation_m":0}},
    {"type":"Feature","geometry":{"coordinates":[-171.812514,-14.00229383],"type":"Point"},"properties":{"UseType":"Primary","Asset":"School","Value":0,"Details":"Tafitoala Primary, 2","Structure":null,"Wall_Material":null,"Condition":null,"Admin1_Region":"Tuamasaga","Admin2_Region":"Safata","WindGust_kmph":111,"Fluvial_Inundation_m":0,"Coastal_Inundation_m":0}},
    {"type":"Feature","geometry":{"coordinates":[-171.6994905,-13.86290593],"type":"Point"},"properties":{"UseType":"Primary","Asset":"School","Value":0,"Details":"Lauli'i Primary, 1","Structure":null,"Wall_Material":null,"Condition":null,"Admin1_Region":"Tuamasaga","Admin2_Region":"Vaimauga East","WindGust_kmph":115,"Fluvial_Inundation_m":0,"Coastal_Inundation_m":0}},
    {"type":"Feature","geometry":{"coordinates":[-171.6995874,-13.86321967],"type":"Point"},"properties":{"UseType":"Primary","Asset":"School","Value":0,"Details":"Lauli'i Primary, 4","Structure":null,"Wall_Material":null,"Condition":null,"Admin1_Region":"Tuamasaga","Admin2_Region":"Vaimauga East","WindGust_kmph":112,"Fluvial_Inundation_m":0,"Coastal_Inundation_m":0}},
    {"type":"Feature","geometry":{"coordinates":[-171.6995233,-13.86302],"type":"Point"},"properties":{"UseType":"Primary","Asset":"School","Value":0,"Details":"Lauli'i Primary, 2","Structure":null,"Wall_Material":null,"Condition":null,"Admin1_Region":"Tuamasaga","Admin2_Region":"Vaimauga East","WindGust_kmph":112,"Fluvial_Inundation_m":0,"Coastal_Inundation_m":0}},
    {"type":"Feature","geometry":{"coordinates":[-171.6994525,-13.8633491],"type":"Point"},"properties":{"UseType":"Primary","Asset":"School","Value":0,"Details":"Lauli'i Primary, 5","Structure":null,"Wall_Material":null,"Condition":null,"Admin1_Region":"Tuamasaga","Admin2_Region":"Vaimauga East","WindGust_kmph":111,"Fluvial_Inundation_m":0,"Coastal_Inundation_m":0}},
    {"type":"Feature","geometry":{"coordinates":[-171.6992101,-13.86325292],"type":"Point"},"properties":{"UseType":"Primary","Asset":"School","Value":0,"Details":"Lauli'i Primary, 6","Structure":null,"Wall_Material":null,"Condition":null,"Admin1_Region":"Tuamasaga","Admin2_Region":"Vaimauga East","WindGust_kmph":108,"Fluvial_Inundation_m":0,"Coastal_Inundation_m":0}},
    {"type":"Feature","geometry":{"coordinates":[-171.699645,-13.86296],"type":"Point"},"properties":{"UseType":"Primary","Asset":"School","Value":0,"Details":"Lauli'i Primary, 3","Structure":null,"Wall_Material":null,"Condition":null,"Admin1_Region":"Tuamasaga","Admin2_Region":"Vaimauga East","WindGust_kmph":115,"Fluvial_Inundation_m":0,"Coastal_Inundation_m":0}},
    {"type":"Feature","geometry":{"coordinates":[-171.7293788,-13.84458156],"type":"Point"},"properties":{"UseType":"Primary","Asset":"School","Value":0,"Details":"Vailele Primary, 1","Structure":null,"Wall_Material":null,"Condition":null,"Admin1_Region":"Tuamasaga","Admin2_Region":"Vaimauga East","WindGust_kmph":105,"Fluvial_Inundation_m":0,"Coastal_Inundation_m":0}},
    {"type":"Feature","geometry":{"coordinates":[-171.7299187,-13.84433656],"type":"Point"},"properties":{"UseType":"Primary","Asset":"School","Value":0,"Details":"Vailele Primary, 5","Structure":null,"Wall_Material":null,"Condition":null,"Admin1_Region":"Tuamasaga","Admin2_Region":"Vaimauga East","WindGust_kmph":107,"Fluvial_Inundation_m":0,"Coastal_Inundation_m":0}},
    {"type":"Feature","geometry":{"coordinates":[-171.7031938,-14.02151321],"type":"Point"},"properties":{"UseType":"Primary","Asset":"School","Value":0,"Details":"Saleilua Primary, 1","Structure":null,"Wall_Material":null,"Condition":null,"Admin1_Region":"Atua","Admin2_Region":"Falealili","WindGust_kmph":111,"Fluvial_Inundation_m":0,"Coastal_Inundation_m":0}},
    {"type":"Feature","geometry":{"coordinates":[-171.8817607,-13.80118336],"type":"Point"},"properties":{"UseType":"Primary","Asset":"School","Value":0,"Details":"Levi Primary, 2","Structure":null,"Wall_Material":null,"Condition":null,"Admin1_Region":"Tuamasaga","Admin2_Region":"Sagaga le Falefa","WindGust_kmph":105,"Fluvial_Inundation_m":0,"Coastal_Inundation_m":0}},
    {"type":"Feature","geometry":{"coordinates":[-172.4170466,-13.45868974],"type":"Point"},"properties":{"UseType":"Primary","Asset":"School","Value":0,"Details":"Samauga Primary, 1","Structure":null,"Wall_Material":null,"Condition":null,"Admin1_Region":"Gaga'ifomauga","Admin2_Region":"Gagaifomauga II","WindGust_kmph":150,"Fluvial_Inundation_m":0,"Coastal_Inundation_m":0}},
    {"type":"Feature","geometry":{"coordinates":[-172.4161776,-13.45784764],"type":"Point"},"properties":{"UseType":"Primary","Asset":"School","Value":0,"Details":"Samauga Primary, 5","Structure":null,"Wall_Material":null,"Condition":null,"Admin1_Region":"Gaga'ifomauga","Admin2_Region":"Gagaifomauga II","WindGust_kmph":145,"Fluvial_Inundation_m":0,"Coastal_Inundation_m":0}},
    {"type":"Feature","geometry":{"coordinates":[-172.4170274,-13.45855161],"type":"Point"},"properties":{"UseType":"Primary","Asset":"School","Value":0,"Details":"Samauga Primary, 2","Structure":null,"Wall_Material":null,"Condition":null,"Admin1_Region":"Gaga'ifomauga","Admin2_Region":"Gagaifomauga II","WindGust_kmph":150,"Fluvial_Inundation_m":0,"Coastal_Inundation_m":0}},
    {"type":"Feature","geometry":{"coordinates":[-172.4162667,-13.45804806],"type":"Point"},"properties":{"UseType":"Primary","Asset":"School","Value":0,"Details":"Samauga Primary, 4","Structure":null,"Wall_Material":null,"Condition":null,"Admin1_Region":"Gaga'ifomauga","Admin2_Region":"Gagaifomauga II","WindGust_kmph":154,"Fluvial_Inundation_m":0,"Coastal_Inundation_m":0}},
    {"type":"Feature","geometry":{"coordinates":[-172.416787,-13.45840905],"type":"Point"},"properties":{"UseType":"Primary","Asset":"School","Value":0,"Details":"Samauga Primary, 3","Structure":null,"Wall_Material":null,"Condition":null,"Admin1_Region":"Gaga'ifomauga","Admin2_Region":"Gagaifomauga II","WindGust_kmph":152,"Fluvial_Inundation_m":0,"Coastal_Inundation_m":0}},
    {"type":"Feature","geometry":{"coordinates":[-172.6934347,-13.51996679],"type":"Point"},"properties":{"UseType":"Primary","Asset":"School","Value":0,"Details":"Sataua/Fagasa Primary, 1","Structure":null,"Wall_Material":null,"Condition":null,"Admin1_Region":"Vaisigano","Admin2_Region":"Vaisigano West","WindGust_kmph":105,"Fluvial_Inundation_m":0,"Coastal_Inundation_m":0}},
    {"type":"Feature","geometry":{"coordinates":[-172.6938897,-13.51962182],"type":"Point"},"properties":{"UseType":"Primary","Asset":"School","Value":0,"Details":"Sataua/Fagasa Primary, 3","Structure":null,"Wall_Material":null,"Condition":null,"Admin1_Region":"Vaisigano","Admin2_Region":"Vaisigano West","WindGust_kmph":109,"Fluvial_Inundation_m":0,"Coastal_Inundation_m":0}},
    {"type":"Feature","geometry":{"coordinates":[-172.6932889,-13.51996121],"type":"Point"},"properties":{"UseType":"Primary","Asset":"School","Value":0,"Details":"Sataua/Fagasa Primary, 2","Structure":null,"Wall_Material":null,"Condition":null,"Admin1_Region":"Vaisigano","Admin2_Region":"Vaisigano West","WindGust_kmph":105,"Fluvial_Inundation_m":0,"Coastal_Inundation_m":0}},
    {"type":"Feature","geometry":{"coordinates":[-172.6694071,-13.51207578],"type":"Point"},"properties":{"UseType":"Primary","Asset":"School","Value":0,"Details":"Vaisala Primary, 2","Structure":null,"Wall_Material":null,"Condition":null,"Admin1_Region":"Vaisigano","Admin2_Region":"Vaisigano East","WindGust_kmph":131,"Fluvial_Inundation_m":0,"Coastal_Inundation_m":0}},
    {"type":"Feature","geometry":{"coordinates":[-172.6695915,-13.51152555],"type":"Point"},"properties":{"UseType":"Primary","Asset":"School","Value":0,"Details":"Vaisala Primary, 1","Structure":null,"Wall_Material":null,"Condition":null,"Admin1_Region":"Vaisigano","Admin2_Region":"Vaisigano East","WindGust_kmph":131,"Fluvial_Inundation_m":0,"Coastal_Inundation_m":0}},
    {"type":"Feature","geometry":{"coordinates":[-172.6693937,-13.5122299],"type":"Point"},"properties":{"UseType":"Primary","Asset":"School","Value":0,"Details":"Vaisala Primary, 3","Structure":null,"Wall_Material":null,"Condition":null,"Admin1_Region":"Vaisigano","Admin2_Region":"Vaisigano East","WindGust_kmph":123,"Fluvial_Inundation_m":0,"Coastal_Inundation_m":0}},
    {"type":"Feature","geometry":{"coordinates":[-172.6941411,-13.52004065],"type":"Point"},"properties":{"UseType":"Primary","Asset":"School","Value":0,"Details":"Sataua/Fagasa Primary, 4","Structure":null,"Wall_Material":null,"Condition":null,"Admin1_Region":"Vaisigano","Admin2_Region":"Vaisigano West","WindGust_kmph":106,"Fluvial_Inundation_m":0,"Coastal_Inundation_m":0}},
    {"type":"Feature","geometry":{"coordinates":[-172.6346344,-13.5192743],"type":"Point"},"properties":{"UseType":"Primary","Asset":"School","Value":0,"Details":"Asau Primary, 5","Structure":null,"Wall_Material":null,"Condition":null,"Admin1_Region":"Vaisigano","Admin2_Region":"Vaisigano East","WindGust_kmph":107,"Fluvial_Inundation_m":0,"Coastal_Inundation_m":0}},
    {"type":"Feature","geometry":{"coordinates":[-172.6602209,-13.64696287],"type":"Point"},"properties":{"UseType":"Primary","Asset":"School","Value":0,"Details":"Samata-i-uta Primary, 2","Structure":null,"Wall_Material":null,"Condition":null,"Admin1_Region":"Satupa'itea","Admin2_Region":"Salega","WindGust_kmph":110,"Fluvial_Inundation_m":0,"Coastal_Inundation_m":0}},
    {"type":"Feature","geometry":{"coordinates":[-172.4282613,-13.46878482],"type":"Point"},"properties":{"UseType":"Primary","Asset":"School","Value":0,"Details":"Safune Primary, 2","Structure":null,"Wall_Material":null,"Condition":null,"Admin1_Region":"Gaga'ifomauga","Admin2_Region":"Gagaifomauga II","WindGust_kmph":112,"Fluvial_Inundation_m":0,"Coastal_Inundation_m":0}},
    {"type":"Feature","geometry":{"coordinates":[-172.4283059,-13.46896627],"type":"Point"},"properties":{"UseType":"Primary","Asset":"School","Value":0,"Details":"Safune Primary, 3","Structure":null,"Wall_Material":null,"Condition":null,"Admin1_Region":"Gaga'ifomauga","Admin2_Region":"Gagaifomauga II","WindGust_kmph":112,"Fluvial_Inundation_m":0,"Coastal_Inundation_m":0}},
    {"type":"Feature","geometry":{"coordinates":[-172.4280663,-13.46893122],"type":"Point"},"properties":{"UseType":"Primary","Asset":"School","Value":0,"Details":"Safune Primary, 1","Structure":null,"Wall_Material":null,"Condition":null,"Admin1_Region":"Gaga'ifomauga","Admin2_Region":"Gagaifomauga II","WindGust_kmph":112,"Fluvial_Inundation_m":0,"Coastal_Inundation_m":0}},
    {"type":"Feature","geometry":{"coordinates":[-172.3904394,-13.77392438],"type":"Point"},"properties":{"UseType":"Primary","Asset":"School","Value":0,"Details":"Gataivai Primary, 2","Structure":null,"Wall_Material":null,"Condition":null,"Admin1_Region":"Palauli","Admin2_Region":"Palauli le Falefa","WindGust_kmph":107,"Fluvial_Inundation_m":0,"Coastal_Inundation_m":0}},
    {"type":"Feature","geometry":{"coordinates":[-172.3299455,-13.76729002],"type":"Point"},"properties":{"UseType":"Primary","Asset":"School","Value":0,"Details":"Satupaitea Primary, 2","Structure":null,"Wall_Material":null,"Condition":null,"Admin1_Region":"Satupa'itea","Admin2_Region":"Satuipaitea","WindGust_kmph":106,"Fluvial_Inundation_m":0,"Coastal_Inundation_m":0}},
    {"type":"Feature","geometry":{"coordinates":[-171.9491115,-13.96831039],"type":"Point"},"properties":{"UseType":"Primary","Asset":"School","Value":0,"Details":"Matautu Primary, 6","Structure":null,"Wall_Material":null,"Condition":null,"Admin1_Region":"A'ana","Admin2_Region":"Lefaga & Faleseela","WindGust_kmph":112,"Fluvial_Inundation_m":0,"Coastal_Inundation_m":0}},
    {"type":"Feature","geometry":{"coordinates":[-171.8445987,-13.79968],"type":"Point"},"properties":{"UseType":"Primary","Asset":"School","Value":0,"Details":"Malie Primary, 9","Structure":null,"Wall_Material":null,"Condition":null,"Admin1_Region":"Tuamasaga","Admin2_Region":"Sagaga le Usoga","WindGust_kmph":122,"Fluvial_Inundation_m":0,"Coastal_Inundation_m":0}},
    {"type":"Feature","geometry":{"coordinates":[-171.6075325,-13.87959],"type":"Point"},"properties":{"UseType":"Primary","Asset":"School","Value":0,"Details":"Saoluafata Primary, 3","Structure":null,"Wall_Material":null,"Condition":null,"Admin1_Region":"Atua","Admin2_Region":"Anoamaa West","WindGust_kmph":122,"Fluvial_Inundation_m":0,"Coastal_Inundation_m":0}},
    {"type":"Feature","geometry":{"coordinates":[-171.6865501,-13.86671],"type":"Point"},"properties":{"UseType":"Primary","Asset":"School","Value":0,"Details":"Luatuanuu Primary, 2","Structure":null,"Wall_Material":null,"Condition":null,"Admin1_Region":"Atua","Admin2_Region":"Anoamaa West","WindGust_kmph":121,"Fluvial_Inundation_m":0,"Coastal_Inundation_m":0}},
    {"type":"Feature","geometry":{"coordinates":[-171.6286754,-14.0367],"type":"Point"},"properties":{"UseType":"Primary","Asset":"School","Value":0,"Details":"Sapunaoa Primary, 5","Structure":null,"Wall_Material":null,"Condition":null,"Admin1_Region":"Atua","Admin2_Region":"Falealili","WindGust_kmph":108,"Fluvial_Inundation_m":0,"Coastal_Inundation_m":0}},
    {"type":"Feature","geometry":{"coordinates":[-171.6798171,-14.03204357],"type":"Point"},"properties":{"UseType":"Primary","Asset":"School","Value":0,"Details":"Vaovai Primary, 7","Structure":null,"Wall_Material":null,"Condition":null,"Admin1_Region":"Atua","Admin2_Region":"Falealili","WindGust_kmph":108,"Fluvial_Inundation_m":0,"Coastal_Inundation_m":0}},
    {"type":"Feature","geometry":{"coordinates":[-171.844575,-13.79964],"type":"Point"},"properties":{"UseType":"Primary","Asset":"School","Value":0,"Details":"Malie Primary, 8","Structure":null,"Wall_Material":null,"Condition":null,"Admin1_Region":"Tuamasaga","Admin2_Region":"Sagaga le Usoga","WindGust_kmph":122,"Fluvial_Inundation_m":0,"Coastal_Inundation_m":0}},
    {"type":"Feature","geometry":{"coordinates":[-171.8445747,-13.79965],"type":"Point"},"properties":{"UseType":"Primary","Asset":"School","Value":0,"Details":"Malie Primary, 7","Structure":null,"Wall_Material":null,"Condition":null,"Admin1_Region":"Tuamasaga","Admin2_Region":"Sagaga le Usoga","WindGust_kmph":122,"Fluvial_Inundation_m":0,"Coastal_Inundation_m":0}},
    {"type":"Feature","geometry":{"coordinates":[-171.8445913,-13.7996],"type":"Point"},"properties":{"UseType":"Primary","Asset":"School","Value":0,"Details":"Malie Primary, 6","Structure":null,"Wall_Material":null,"Condition":null,"Admin1_Region":"Tuamasaga","Admin2_Region":"Sagaga le Usoga","WindGust_kmph":122,"Fluvial_Inundation_m":0,"Coastal_Inundation_m":0}},
    {"type":"Feature","geometry":{"coordinates":[-171.8446289,-13.79963],"type":"Point"},"properties":{"UseType":"Primary","Asset":"School","Value":0,"Details":"Malie Primary, 5","Structure":null,"Wall_Material":null,"Condition":null,"Admin1_Region":"Tuamasaga","Admin2_Region":"Sagaga le Usoga","WindGust_kmph":122,"Fluvial_Inundation_m":0,"Coastal_Inundation_m":0}},
    {"type":"Feature","geometry":{"coordinates":[-171.9167813,-13.97303],"type":"Point"},"properties":{"UseType":"Primary","Asset":"School","Value":0,"Details":"Salamumu Primary, 1","Structure":null,"Wall_Material":null,"Condition":null,"Admin1_Region":"Gaga'emauga","Admin2_Region":"Gagaemauga II (PART)","WindGust_kmph":108,"Fluvial_Inundation_m":0,"Coastal_Inundation_m":0}},
    {"type":"Feature","geometry":{"coordinates":[-171.6206223,-14.03493],"type":"Point"},"properties":{"UseType":"Primary","Asset":"School","Value":0,"Details":"Salesatele Primary, 3","Structure":null,"Wall_Material":null,"Condition":null,"Admin1_Region":"Atua","Admin2_Region":"Falealili","WindGust_kmph":107,"Fluvial_Inundation_m":0,"Coastal_Inundation_m":0}},
    {"type":"Feature","geometry":{"coordinates":[-171.6799973,-14.03234998],"type":"Point"},"properties":{"UseType":"Primary","Asset":"School","Value":0,"Details":"Vaovai Primary, 5","Structure":null,"Wall_Material":null,"Condition":null,"Admin1_Region":"Atua","Admin2_Region":"Falealili","WindGust_kmph":109,"Fluvial_Inundation_m":0,"Coastal_Inundation_m":0}},
    {"type":"Feature","geometry":{"coordinates":[-171.8127511,-14.00228],"type":"Point"},"properties":{"UseType":"Primary","Asset":"School","Value":0,"Details":"Tafitoala Primary, 3","Structure":null,"Wall_Material":null,"Condition":null,"Admin1_Region":"Tuamasaga","Admin2_Region":"Safata","WindGust_kmph":111,"Fluvial_Inundation_m":0,"Coastal_Inundation_m":0}},
    {"type":"Feature","geometry":{"coordinates":[-171.7989426,-14.00369],"type":"Point"},"properties":{"UseType":"Primary","Asset":"School","Value":0,"Details":"Mulivai Primary, 4","Structure":null,"Wall_Material":null,"Condition":null,"Admin1_Region":"Tuamasaga","Admin2_Region":"Safata","WindGust_kmph":108,"Fluvial_Inundation_m":0,"Coastal_Inundation_m":0}},
    {"type":"Feature","geometry":{"coordinates":[-171.7991755,-14.00324],"type":"Point"},"properties":{"UseType":"Primary","Asset":"School","Value":0,"Details":"Mulivai Primary, 3","Structure":null,"Wall_Material":null,"Condition":null,"Admin1_Region":"Tuamasaga","Admin2_Region":"Safata","WindGust_kmph":111,"Fluvial_Inundation_m":0,"Coastal_Inundation_m":0}},
    {"type":"Feature","geometry":{"coordinates":[-171.7991987,-14.00317],"type":"Point"},"properties":{"UseType":"Primary","Asset":"School","Value":0,"Details":"Mulivai Primary, 2","Structure":null,"Wall_Material":null,"Condition":null,"Admin1_Region":"Tuamasaga","Admin2_Region":"Safata","WindGust_kmph":111,"Fluvial_Inundation_m":0,"Coastal_Inundation_m":0}},
    {"type":"Feature","geometry":{"coordinates":[-171.7991784,-14.00323],"type":"Point"},"properties":{"UseType":"Primary","Asset":"School","Value":0,"Details":"Mulivai Primary, 1","Structure":null,"Wall_Material":null,"Condition":null,"Admin1_Region":"Tuamasaga","Admin2_Region":"Safata","WindGust_kmph":111,"Fluvial_Inundation_m":0,"Coastal_Inundation_m":0}}
  ]
}
